{
"type": "FeatureCollection",
"name": "bairros",
"crs": { "type": "name", "properties": { "name": "urn:ogc:def:crs:EPSG::4674" } },
"features": [
{ "type": "Feature", "properties": { "CD_REGIAO": "2", "NM_REGIAO": "Nordeste", "CD_UF": "23", "NM_UF": "Ceará", "CD_MUN": "2313401", "NM_MUN": "Tianguá", "CD_DIST": "231340105", "NM_DIST": "Tianguá", "CD_SUBDIST": "23134010500", "NM_SUBDIST": null, "CD_BAIRRO": "2313401016", "NM_BAIRRO": "Gaioso Nunes", "CD_RGINT": "2306", "NM_RGINT": "Sobral", "CD_RGI": "230016", "NM_RGI": "São Benedito - Ipu - Guaraciaba do Norte - Tianguá", "CD_CONCURB": null, "NM_CONCURB": null }, "geometry": { "type": "MultiPolygon", "coordinates": [ [ [ [ -41.023953699999936, -3.730757099999948 ], [ -41.012193599999932, -3.737075499999946 ], [ -41.010279, -3.737088899999947 ], [ -41.009314499999959, -3.737446899999952 ], [ -41.007477799999947, -3.738495099999966 ], [ -41.004696799999977, -3.737490799999932 ], [ -41.004997399999979, -3.73852039999997 ], [ -41.005358499999943, -3.739108099999953 ], [ -41.005521299999941, -3.739373 ], [ -41.006304899999975, -3.740664599999945 ], [ -41.007100799999932, -3.741854799999942 ], [ -41.007540499999948, -3.742321899999979 ], [ -41.007739899999933, -3.742534299999932 ], [ -41.008778799999959, -3.74364879999996 ], [ -41.009312199999954, -3.744221 ], [ -41.010597399999938, -3.745666899999947 ], [ -41.011194899999964, -3.746339099999943 ], [ -41.032460599999979, -3.765386 ], [ -41.040848099999948, -3.751355499999931 ], [ -41.03620959999995, -3.742984099999944 ], [ -41.029461, -3.730733499999928 ], [ -41.029333599999973, -3.730502299999955 ], [ -41.026684499999931, -3.730864099999962 ], [ -41.023953699999936, -3.730757099999948 ] ] ] ] } },
{ "type": "Feature", "properties": { "CD_REGIAO": "2", "NM_REGIAO": "Nordeste", "CD_UF": "23", "NM_UF": "Ceará", "CD_MUN": "2313401", "NM_MUN": "Tianguá", "CD_DIST": "231340105", "NM_DIST": "Tianguá", "CD_SUBDIST": "23134010500", "NM_SUBDIST": null, "CD_BAIRRO": "2313401008", "NM_BAIRRO": "Régis Diniz", "CD_RGINT": "2306", "NM_RGINT": "Sobral", "CD_RGI": "230016", "NM_RGI": "São Benedito - Ipu - Guaraciaba do Norte - Tianguá", "CD_CONCURB": null, "NM_CONCURB": null }, "geometry": { "type": "MultiPolygon", "coordinates": [ [ [ [ -41.002784399999939, -3.734644 ], [ -41.002011499999981, -3.733355899999935 ], [ -41.001227, -3.733177799999964 ], [ -40.999990699999955, -3.73303059999995 ], [ -40.999195899999961, -3.732775499999946 ], [ -40.998326, -3.732293 ], [ -40.998219699999936, -3.732285499999932 ], [ -40.997977099999957, -3.732042899999954 ], [ -40.997544, -3.731895 ], [ -40.996375299999954, -3.731580399999928 ], [ -40.994011, -3.730848 ], [ -40.993869, -3.730853 ], [ -40.993894499999953, -3.731033299999979 ], [ -40.99379179999994, -3.732191799999953 ], [ -40.993591, -3.735612 ], [ -40.994135, -3.735888 ], [ -40.994306, -3.736101 ], [ -40.994604, -3.736546899999951 ], [ -40.994902899999943, -3.736717 ], [ -40.995137, -3.736717 ], [ -40.995243, -3.736802 ], [ -40.99535, -3.736992899999962 ], [ -40.995627, -3.737185 ], [ -40.995947, -3.737375899999961 ], [ -40.996032, -3.737674 ], [ -40.996351, -3.738057 ], [ -40.996671, -3.738332899999932 ], [ -40.996947299999931, -3.738841399999956 ], [ -40.997076, -3.73912 ], [ -40.997395, -3.739417 ], [ -40.997843, -3.739545 ], [ -40.998141, -3.739821 ], [ -40.999015, -3.740034 ], [ -40.999334, -3.740034 ], [ -40.999611, -3.740119 ], [ -41.000037, -3.74031 ], [ -41.000464, -3.740332 ], [ -41.000698, -3.740629 ], [ -41.001017, -3.740651 ], [ -41.001167, -3.740608 ], [ -41.00138, -3.740438 ], [ -41.001934, -3.740374 ], [ -41.002275, -3.740374 ], [ -41.002828, -3.740289 ], [ -41.003063, -3.740098 ], [ -41.003143099999932, -3.740079 ], [ -41.004007799999954, -3.741617499999961 ], [ -41.004791499999953, -3.74268 ], [ -41.00522129999996, -3.743346499999973 ], [ -41.005971099999954, -3.744424799999933 ], [ -41.006456799999967, -3.745577699999956 ], [ -41.007276, -3.745053599999949 ], [ -41.007492, -3.744915399999968 ], [ -41.008223, -3.744297199999949 ], [ -41.008778799999959, -3.74364879999996 ], [ -41.007739899999933, -3.742534299999932 ], [ -41.007540499999948, -3.742321899999979 ], [ -41.007100799999932, -3.741854799999942 ], [ -41.006304899999975, -3.740664599999945 ], [ -41.005521299999941, -3.739373 ], [ -41.005358499999943, -3.739108099999953 ], [ -41.004997399999979, -3.73852039999997 ], [ -41.004696799999977, -3.737490799999932 ], [ -41.00423539999997, -3.736829099999966 ], [ -41.003647599999965, -3.735698599999978 ], [ -41.003451299999938, -3.735458799999947 ], [ -41.002784399999939, -3.734644 ] ] ] ] } },
{ "type": "Feature", "properties": { "CD_REGIAO": "2", "NM_REGIAO": "Nordeste", "CD_UF": "23", "NM_UF": "Ceará", "CD_MUN": "2313401", "NM_MUN": "Tianguá", "CD_DIST": "231340105", "NM_DIST": "Tianguá", "CD_SUBDIST": "23134010500", "NM_SUBDIST": null, "CD_BAIRRO": "2313401017", "NM_BAIRRO": "Narciso Pessoa", "CD_RGINT": "2306", "NM_RGINT": "Sobral", "CD_RGI": "230016", "NM_RGI": "São Benedito - Ipu - Guaraciaba do Norte - Tianguá", "CD_CONCURB": null, "NM_CONCURB": null }, "geometry": { "type": "MultiPolygon", "coordinates": [ [ [ [ -41.010353899999984, -3.718741199999954 ], [ -41.010557799999958, -3.720661699999937 ], [ -41.010739299999955, -3.721055099999944 ], [ -41.011861499999952, -3.720652599999937 ], [ -41.012028699999973, -3.720592599999975 ], [ -41.017456899999956, -3.725062399999956 ], [ -41.023221699999965, -3.729841 ], [ -41.023820899999976, -3.730591 ], [ -41.023953699999936, -3.730757099999948 ], [ -41.026684499999931, -3.730864099999962 ], [ -41.029333599999973, -3.730502299999955 ], [ -41.029142699999966, -3.730159699999945 ], [ -41.027561599999956, -3.727322099999981 ], [ -41.028245899999945, -3.727323099999978 ], [ -41.029212799999982, -3.727355699999976 ], [ -41.030484199999933, -3.726834799999949 ], [ -41.031468299999972, -3.726491099999976 ], [ -41.03222169999998, -3.725774299999955 ], [ -41.032702499999971, -3.725404399999945 ], [ -41.034453599999949, -3.725545799999963 ], [ -41.036831499999948, -3.728863199999978 ], [ -41.03702149999998, -3.729128199999934 ], [ -41.039878599999952, -3.72865429999996 ], [ -41.043926, -3.727982899999972 ], [ -41.044530399999985, -3.720314899999948 ], [ -41.04349579999996, -3.720691299999942 ], [ -41.042329299999949, -3.721294199999932 ], [ -41.04109509999995, -3.722389199999952 ], [ -41.039905899999951, -3.72347179999997 ], [ -41.038321599999961, -3.724094499999978 ], [ -41.036840799999936, -3.724870799999962 ], [ -41.035854399999948, -3.725360499999965 ], [ -41.035484299999951, -3.724208899999951 ], [ -41.034877399999971, -3.723731199999975 ], [ -41.034022299999947, -3.723542299999963 ], [ -41.03386409999996, -3.723106799999925 ], [ -41.033976699999982, -3.722266499999932 ], [ -41.033773699999983, -3.721665899999948 ], [ -41.033144099999959, -3.721407499999941 ], [ -41.032706099999984, -3.721543399999973 ], [ -41.032613399999946, -3.721509599999933 ], [ -41.031877899999984, -3.721406099999967 ], [ -41.031393, -3.720963899999958 ], [ -41.030739, -3.720298299999968 ], [ -41.030302199999937, -3.719895599999973 ], [ -41.029809599999965, -3.719682599999942 ], [ -41.029622599999982, -3.719086699999934 ], [ -41.029435699999965, -3.718710499999929 ], [ -41.029089, -3.718242699999962 ], [ -41.028557599999942, -3.717867699999942 ], [ -41.02818069999995, -3.717138199999965 ], [ -41.027878, -3.716510199999959 ], [ -41.027549199999953, -3.715902399999948 ], [ -41.027040299999953, -3.715430799999979 ], [ -41.026097199999981, -3.715314399999954 ], [ -41.025229699999954, -3.715091599999937 ], [ -41.024377099999981, -3.714489499999956 ], [ -41.022531699999945, -3.713807299999928 ], [ -41.020292799999936, -3.713630199999955 ], [ -41.020114, -3.713919099999941 ], [ -41.019407699999931, -3.714777599999934 ], [ -41.018600799999945, -3.714876299999958 ], [ -41.017967899999974, -3.715074699999946 ], [ -41.017157499999939, -3.715316899999948 ], [ -41.016403099999934, -3.715375 ], [ -41.015078799999969, -3.715308499999935 ], [ -41.013666, -3.71577689999998 ], [ -41.012431099999958, -3.716264899999942 ], [ -41.012292399999978, -3.716894199999956 ], [ -41.011634, -3.718197399999951 ], [ -41.011148, -3.718714 ], [ -41.010954799999979, -3.718811399999936 ], [ -41.010756199999946, -3.71880989999994 ], [ -41.010353899999984, -3.718741199999954 ] ] ] ] } },
{ "type": "Feature", "properties": { "CD_REGIAO": "2", "NM_REGIAO": "Nordeste", "CD_UF": "23", "NM_UF": "Ceará", "CD_MUN": "2313401", "NM_MUN": "Tianguá", "CD_DIST": "231340105", "NM_DIST": "Tianguá", "CD_SUBDIST": "23134010500", "NM_SUBDIST": null, "CD_BAIRRO": "2313401009", "NM_BAIRRO": "Cândido Xavier de Sá", "CD_RGINT": "2306", "NM_RGINT": "Sobral", "CD_RGI": "230016", "NM_RGI": "São Benedito - Ipu - Guaraciaba do Norte - Tianguá", "CD_CONCURB": null, "NM_CONCURB": null }, "geometry": { "type": "MultiPolygon", "coordinates": [ [ [ [ -41.001585, -3.749341799999968 ], [ -41.002708599999949, -3.748442799999964 ], [ -41.004288799999983, -3.747102599999948 ], [ -41.005072699999971, -3.746464199999934 ], [ -41.006117399999937, -3.745795099999953 ], [ -41.006456799999967, -3.745577699999956 ], [ -41.005971099999954, -3.744424799999933 ], [ -41.00522129999996, -3.743346499999973 ], [ -41.004791499999953, -3.74268 ], [ -41.004007799999954, -3.741617499999961 ], [ -41.003143099999932, -3.740079 ], [ -41.003063, -3.740098 ], [ -41.002828, -3.740289 ], [ -41.002275, -3.740374 ], [ -41.001934, -3.740374 ], [ -41.00138, -3.740438 ], [ -41.001167, -3.740608 ], [ -41.001017, -3.740651 ], [ -41.000698, -3.740629 ], [ -41.000464, -3.740332 ], [ -41.000037, -3.74031 ], [ -40.999611, -3.740119 ], [ -40.999334, -3.740034 ], [ -40.999015, -3.740034 ], [ -40.998141, -3.739821 ], [ -40.997843, -3.739545 ], [ -40.997395, -3.739417 ], [ -40.997076, -3.73912 ], [ -40.996947299999931, -3.738841399999956 ], [ -40.996671, -3.738332899999932 ], [ -40.996351, -3.738057 ], [ -40.996032, -3.737674 ], [ -40.995947, -3.737375899999961 ], [ -40.995627, -3.737185 ], [ -40.99535, -3.736992899999962 ], [ -40.995243, -3.736802 ], [ -40.995137, -3.736717 ], [ -40.994902899999943, -3.736717 ], [ -40.994604, -3.736546899999951 ], [ -40.994306, -3.736101 ], [ -40.994135, -3.735888 ], [ -40.993591, -3.735612 ], [ -40.993414, -3.735767 ], [ -40.993193, -3.735656 ], [ -40.993012, -3.735662 ], [ -40.992702, -3.735662 ], [ -40.992592, -3.735662 ], [ -40.99226, -3.735684 ], [ -40.992172, -3.735706 ], [ -40.991906, -3.735706 ], [ -40.991425, -3.735723 ], [ -40.991418, -3.735788 ], [ -40.991345, -3.736299 ], [ -40.991232699999955, -3.737301499999944 ], [ -40.991205, -3.737549 ], [ -40.991082, -3.738647 ], [ -40.990916, -3.739769 ], [ -40.990818, -3.739943 ], [ -40.99037, -3.740777 ], [ -40.990037399999949, -3.74127969999995 ], [ -40.98979479999997, -3.741659199999958 ], [ -40.989221, -3.74262 ], [ -40.989023, -3.742899 ], [ -40.988817, -3.743188 ], [ -40.988479899999959, -3.743724899999961 ], [ -40.988093499999934, -3.744301199999938 ], [ -40.987668099999951, -3.744952 ], [ -40.98718839999998, -3.745603099999926 ], [ -40.986185299999931, -3.747079299999939 ], [ -40.985935499999982, -3.74753069999997 ], [ -40.985757599999943, -3.747808099999929 ], [ -40.985685299999943, -3.747929599999964 ], [ -40.984377, -3.74981 ], [ -40.983866, -3.750662 ], [ -40.983384099999967, -3.751894099999959 ], [ -40.983362899999975, -3.751948199999958 ], [ -40.983282, -3.752155 ], [ -40.982871, -3.753455 ], [ -40.982279, -3.755111 ], [ -40.976660099999947, -3.771472699999947 ], [ -40.998031499999968, -3.75591739999993 ], [ -40.998045499999932, -3.755907199999967 ], [ -41.002751199999977, -3.752482199999974 ], [ -41.002835199999936, -3.752421099999935 ], [ -41.002905599999963, -3.75236979999994 ], [ -41.002914299999929, -3.752197199999955 ], [ -41.001906199999951, -3.749849899999958 ], [ -41.001585, -3.749341799999968 ] ] ] ] } },
{ "type": "Feature", "properties": { "CD_REGIAO": "2", "NM_REGIAO": "Nordeste", "CD_UF": "23", "NM_UF": "Ceará", "CD_MUN": "2313401", "NM_MUN": "Tianguá", "CD_DIST": "231340105", "NM_DIST": "Tianguá", "CD_SUBDIST": "23134010500", "NM_SUBDIST": null, "CD_BAIRRO": "2313401005", "NM_BAIRRO": "Cruzeiro", "CD_RGINT": "2306", "NM_RGINT": "Sobral", "CD_RGI": "230016", "NM_RGI": "São Benedito - Ipu - Guaraciaba do Norte - Tianguá", "CD_CONCURB": null, "NM_CONCURB": null }, "geometry": { "type": "MultiPolygon", "coordinates": [ [ [ [ -40.995184599999959, -3.72894569999994 ], [ -40.993626499999948, -3.729216699999938 ], [ -40.993779399999937, -3.730160299999966 ], [ -40.993869, -3.730853 ], [ -40.994011, -3.730848 ], [ -40.996375299999954, -3.731580399999928 ], [ -40.997544, -3.731895 ], [ -40.997977099999957, -3.732042899999954 ], [ -40.998219699999936, -3.732285499999932 ], [ -40.998326, -3.732293 ], [ -40.999195899999961, -3.732775499999946 ], [ -40.999990699999955, -3.73303059999995 ], [ -41.001227, -3.733177799999964 ], [ -41.002011499999981, -3.733355899999935 ], [ -41.000775799999985, -3.731014699999946 ], [ -41.00032269999997, -3.730208699999935 ], [ -40.999893799999938, -3.729463599999974 ], [ -40.999802599999953, -3.729308499999945 ], [ -40.999595799999952, -3.728949599999964 ], [ -40.999459199999933, -3.728726599999959 ], [ -40.999337599999933, -3.728504399999963 ], [ -40.999203499999965, -3.728240399999947 ], [ -40.998947799999939, -3.727812799999981 ], [ -40.998636399999953, -3.72699369999998 ], [ -40.998493, -3.726696 ], [ -40.998327, -3.726397 ], [ -40.99815, -3.726078 ], [ -40.997854, -3.726305 ], [ -40.997453, -3.726612 ], [ -40.997895599999936, -3.727246699999966 ], [ -40.998395699999946, -3.728370499999926 ], [ -40.997859, -3.728485 ], [ -40.997543, -3.728547 ], [ -40.996264, -3.728782 ], [ -40.995184599999959, -3.72894569999994 ] ] ] ] } },
{ "type": "Feature", "properties": { "CD_REGIAO": "2", "NM_REGIAO": "Nordeste", "CD_UF": "23", "NM_UF": "Ceará", "CD_MUN": "2313401", "NM_MUN": "Tianguá", "CD_DIST": "231340105", "NM_DIST": "Tianguá", "CD_SUBDIST": "23134010500", "NM_SUBDIST": null, "CD_BAIRRO": "2313401018", "NM_BAIRRO": "Santo Expedito", "CD_RGINT": "2306", "NM_RGINT": "Sobral", "CD_RGI": "230016", "NM_RGI": "São Benedito - Ipu - Guaraciaba do Norte - Tianguá", "CD_CONCURB": null, "NM_CONCURB": null }, "geometry": { "type": "MultiPolygon", "coordinates": [ [ [ [ -41.010353899999984, -3.718741199999954 ], [ -41.010756199999946, -3.71880989999994 ], [ -41.010954799999979, -3.718811399999936 ], [ -41.011148, -3.718714 ], [ -41.011634, -3.718197399999951 ], [ -41.012292399999978, -3.716894199999956 ], [ -41.012431099999958, -3.716264899999942 ], [ -41.013666, -3.71577689999998 ], [ -41.015078799999969, -3.715308499999935 ], [ -41.016403099999934, -3.715375 ], [ -41.017157499999939, -3.715316899999948 ], [ -41.017967899999974, -3.715074699999946 ], [ -41.018600799999945, -3.714876299999958 ], [ -41.019407699999931, -3.714777599999934 ], [ -41.020114, -3.713919099999941 ], [ -41.020292799999936, -3.713630199999955 ], [ -41.02004519999997, -3.713616399999978 ], [ -41.019811299999958, -3.71354759999997 ], [ -41.019192299999929, -3.713327499999934 ], [ -41.017183499999931, -3.713263599999948 ], [ -41.011281599999961, -3.713358399999947 ], [ -41.006553, -3.697271 ], [ -41.006241099999954, -3.696209799999963 ], [ -41.00621179999996, -3.696110199999964 ], [ -41.002967499999954, -3.699632 ], [ -41.002063499999963, -3.700754899999936 ], [ -41.001787099999945, -3.701511 ], [ -41.002761899999939, -3.70426759999998 ], [ -41.001629899999955, -3.705951299999981 ], [ -41.001030199999946, -3.706796899999972 ], [ -41.000292199999933, -3.707565699999975 ], [ -40.999434099999974, -3.708597599999962 ], [ -40.999403699999959, -3.708634099999927 ], [ -40.998184799999933, -3.709665899999948 ], [ -40.99743239999998, -3.709933399999954 ], [ -40.996786699999973, -3.710194799999954 ], [ -40.995699299999956, -3.710605199999975 ], [ -40.995947599999965, -3.710760099999959 ], [ -40.997141699999929, -3.711504899999966 ], [ -40.99906569999996, -3.711768699999936 ], [ -41.00038909999995, -3.711954499999933 ], [ -41.005470399999979, -3.713286 ], [ -41.005037199999947, -3.716091499999948 ], [ -41.004560899999944, -3.718597899999963 ], [ -41.004551899999967, -3.718842699999925 ], [ -41.004593099999965, -3.719007 ], [ -41.004290599999933, -3.719617299999925 ], [ -41.004096, -3.720856199999957 ], [ -41.004097499999943, -3.721173599999929 ], [ -41.00405109999997, -3.721642499999973 ], [ -41.001547099999982, -3.723416099999952 ], [ -41.000964599999975, -3.723911899999962 ], [ -41.001235899999983, -3.724301399999945 ], [ -41.002356299999974, -3.72394989999998 ], [ -41.006677599999932, -3.722465499999942 ], [ -41.007663099999945, -3.722125799999958 ], [ -41.008897599999955, -3.72170019999993 ], [ -41.010194099999978, -3.721249399999977 ], [ -41.010739299999955, -3.721055099999944 ], [ -41.010557799999958, -3.720661699999937 ], [ -41.010353899999984, -3.718741199999954 ] ] ] ] } },
{ "type": "Feature", "properties": { "CD_REGIAO": "2", "NM_REGIAO": "Nordeste", "CD_UF": "23", "NM_UF": "Ceará", "CD_MUN": "2313401", "NM_MUN": "Tianguá", "CD_DIST": "231340105", "NM_DIST": "Tianguá", "CD_SUBDIST": "23134010500", "NM_SUBDIST": null, "CD_BAIRRO": "2313401013", "NM_BAIRRO": "São José", "CD_RGINT": "2306", "NM_RGINT": "Sobral", "CD_RGI": "230016", "NM_RGI": "São Benedito - Ipu - Guaraciaba do Norte - Tianguá", "CD_CONCURB": null, "NM_CONCURB": null }, "geometry": { "type": "MultiPolygon", "coordinates": [ [ [ [ -40.976130199999943, -3.751019699999972 ], [ -40.975524699999937, -3.750699199999929 ], [ -40.974242299999958, -3.750070799999946 ], [ -40.971689199999958, -3.749373299999945 ], [ -40.970876699999963, -3.74916 ], [ -40.969408499999929, -3.748728799999981 ], [ -40.968209599999966, -3.748495699999978 ], [ -40.96509089999995, -3.748256499999968 ], [ -40.964976899999954, -3.74926279999994 ], [ -40.96477, -3.751534299999946 ], [ -40.964612299999942, -3.755185199999971 ], [ -40.964686399999948, -3.758870299999955 ], [ -40.964394299999981, -3.762051099999951 ], [ -40.963967, -3.764229399999977 ], [ -40.963771399999985, -3.765972 ], [ -40.963725299999965, -3.766819099999964 ], [ -40.965092399999946, -3.767198899999926 ], [ -40.967047699999966, -3.767742 ], [ -40.96856669999994, -3.768222899999955 ], [ -40.970703599999979, -3.76775989999993 ], [ -40.971908099999951, -3.767711299999974 ], [ -40.973303399999963, -3.76754619999997 ], [ -40.975517199999956, -3.765922599999953 ], [ -40.975438699999984, -3.768044499999974 ], [ -40.975300499999946, -3.771781499999975 ], [ -40.976660099999947, -3.771472699999947 ], [ -40.982279, -3.755111 ], [ -40.982871, -3.753455 ], [ -40.983282, -3.752155 ], [ -40.983362899999975, -3.751948199999958 ], [ -40.983316599999966, -3.751959299999953 ], [ -40.979990499999985, -3.752755599999944 ], [ -40.97979289999995, -3.752743 ], [ -40.976130199999943, -3.751019699999972 ] ] ], [ [ [ -40.933744599999955, -3.75056479999995 ], [ -40.933370699999955, -3.75114119999995 ], [ -40.932515499999965, -3.751830899999959 ], [ -40.932153399999947, -3.752257799999938 ], [ -40.932054799999946, -3.753474599999947 ], [ -40.931527499999959, -3.754266299999927 ], [ -40.931263599999966, -3.755319199999974 ], [ -40.932781599999942, -3.75848689999998 ], [ -40.933244499999944, -3.758951499999966 ], [ -40.934104, -3.759313199999951 ], [ -40.935175299999969, -3.761077399999976 ], [ -40.936024599999939, -3.761529499999938 ], [ -40.936430199999961, -3.762335 ], [ -40.936255899999935, -3.763158899999951 ], [ -40.936212299999966, -3.763532199999929 ], [ -40.93631, -3.76385369999997 ], [ -40.936309499999936, -3.765008699999953 ], [ -40.936821399999985, -3.765358599999956 ], [ -40.936330799999951, -3.767277399999955 ], [ -40.935349599999938, -3.77111489999993 ], [ -40.934858199999951, -3.771334099999933 ], [ -40.934275499999956, -3.771331199999963 ], [ -40.93338, -3.771550299999944 ], [ -40.93244089999996, -3.77266069999996 ], [ -40.931190699999945, -3.77327779999996 ], [ -40.930074699999977, -3.774701199999924 ], [ -40.929044599999941, -3.776759499999969 ], [ -40.928463699999952, -3.777338899999961 ], [ -40.928150499999958, -3.778320599999972 ], [ -40.928099299999985, -3.778377099999943 ], [ -40.931300299999975, -3.779530799999975 ], [ -40.940329799999972, -3.781975799999941 ], [ -40.944414799999947, -3.783630499999958 ], [ -40.947435599999949, -3.785874399999955 ], [ -40.947400899999934, -3.785432199999946 ], [ -40.947133199999939, -3.784978699999954 ], [ -40.947139499999935, -3.784442 ], [ -40.947743399999979, -3.782391599999926 ], [ -40.948072899999943, -3.782035099999973 ], [ -40.949744499999952, -3.779437299999927 ], [ -40.949762499999963, -3.779070399999966 ], [ -40.949757599999941, -3.77889609999994 ], [ -40.949651, -3.778326799999945 ], [ -40.94944739999994, -3.777855799999941 ], [ -40.94862059999997, -3.777223899999967 ], [ -40.948466799999949, -3.776801199999966 ], [ -40.948642699999937, -3.775891399999978 ], [ -40.948599099999967, -3.775436799999966 ], [ -40.948065399999962, -3.77465669999998 ], [ -40.94800719999995, -3.774219499999958 ], [ -40.948313199999973, -3.773276399999929 ], [ -40.94833639999996, -3.77275579999997 ], [ -40.948180199999967, -3.772073899999953 ], [ -40.948590199999956, -3.766388499999948 ], [ -40.947273099999961, -3.766471199999955 ], [ -40.945852299999956, -3.766603799999928 ], [ -40.944837199999938, -3.766726899999981 ], [ -40.944207199999937, -3.76676759999998 ], [ -40.943440599999974, -3.766817199999934 ], [ -40.943047499999977, -3.766842699999927 ], [ -40.942321299999946, -3.766889699999979 ], [ -40.942408199999932, -3.766661399999975 ], [ -40.94295, -3.766139599999974 ], [ -40.942405099999974, -3.765442299999961 ], [ -40.941941699999973, -3.763996899999938 ], [ -40.94198, -3.763428899999951 ], [ -40.941888699999936, -3.762991099999965 ], [ -40.941813599999932, -3.762411699999973 ], [ -40.941358199999968, -3.762472199999934 ], [ -40.941216199999985, -3.76203229999993 ], [ -40.94181709999998, -3.761296699999946 ], [ -40.942175, -3.756019399999957 ], [ -40.941897, -3.754931899999974 ], [ -40.942080799999985, -3.754838499999948 ], [ -40.942433199999982, -3.751172299999951 ], [ -40.942740699999945, -3.751096199999949 ], [ -40.94289619999995, -3.750839499999927 ], [ -40.943116299999986, -3.748819899999944 ], [ -40.941965499999981, -3.749403599999937 ], [ -40.940784899999983, -3.749788799999976 ], [ -40.939765, -3.74995279999996 ], [ -40.93885, -3.750015899999937 ], [ -40.93787569999995, -3.750040499999955 ], [ -40.937279599999954, -3.750155 ], [ -40.936320099999932, -3.750399099999925 ], [ -40.935064499999953, -3.750492299999962 ], [ -40.933744599999955, -3.75056479999995 ] ] ] ] } },
{ "type": "Feature", "properties": { "CD_REGIAO": "2", "NM_REGIAO": "Nordeste", "CD_UF": "23", "NM_UF": "Ceará", "CD_MUN": "2313401", "NM_MUN": "Tianguá", "CD_DIST": "231340105", "NM_DIST": "Tianguá", "CD_SUBDIST": "23134010500", "NM_SUBDIST": null, "CD_BAIRRO": "2313401001", "NM_BAIRRO": "Centro", "CD_RGINT": "2306", "NM_RGINT": "Sobral", "CD_RGI": "230016", "NM_RGI": "São Benedito - Ipu - Guaraciaba do Norte - Tianguá", "CD_CONCURB": null, "NM_CONCURB": null }, "geometry": { "type": "MultiPolygon", "coordinates": [ [ [ [ -40.993779399999937, -3.730160299999966 ], [ -40.993626499999948, -3.729216699999938 ], [ -40.995184599999959, -3.72894569999994 ], [ -40.996264, -3.728782 ], [ -40.997543, -3.728547 ], [ -40.997859, -3.728485 ], [ -40.998395699999946, -3.728370499999926 ], [ -40.997895599999936, -3.727246699999966 ], [ -40.997453, -3.726612 ], [ -40.997854, -3.726305 ], [ -40.99815, -3.726078 ], [ -40.997577899999953, -3.725051899999926 ], [ -40.996497, -3.723111899999935 ], [ -40.994898, -3.723348 ], [ -40.992847, -3.723628 ], [ -40.990873399999941, -3.723892299999932 ], [ -40.989062599999954, -3.724088399999971 ], [ -40.988673399999982, -3.724154899999974 ], [ -40.988993299999947, -3.726459499999976 ], [ -40.989178, -3.728038099999935 ], [ -40.989295699999957, -3.729089299999941 ], [ -40.989400199999977, -3.729890799999964 ], [ -40.988354699999945, -3.730045599999926 ], [ -40.987552799999946, -3.730170899999962 ], [ -40.986569, -3.73028979999998 ], [ -40.98649759999995, -3.73060739999994 ], [ -40.987478199999941, -3.730767299999968 ], [ -40.988250499999936, -3.730848199999969 ], [ -40.990260099999944, -3.730956499999934 ], [ -40.990511, -3.732221799999934 ], [ -40.991907899999944, -3.732524299999966 ], [ -40.991425, -3.735723 ], [ -40.991906, -3.735706 ], [ -40.992172, -3.735706 ], [ -40.99226, -3.735684 ], [ -40.992592, -3.735662 ], [ -40.992702, -3.735662 ], [ -40.993012, -3.735662 ], [ -40.993193, -3.735656 ], [ -40.993414, -3.735767 ], [ -40.993591, -3.735612 ], [ -40.99379179999994, -3.732191799999953 ], [ -40.993894499999953, -3.731033299999979 ], [ -40.993869, -3.730853 ], [ -40.993779399999937, -3.730160299999966 ] ] ] ] } },
{ "type": "Feature", "properties": { "CD_REGIAO": "2", "NM_REGIAO": "Nordeste", "CD_UF": "23", "NM_UF": "Ceará", "CD_MUN": "2313401", "NM_MUN": "Tianguá", "CD_DIST": "231340105", "NM_DIST": "Tianguá", "CD_SUBDIST": "23134010500", "NM_SUBDIST": null, "CD_BAIRRO": "2313401012", "NM_BAIRRO": "Vereador Anastácio Arruda", "CD_RGINT": "2306", "NM_RGINT": "Sobral", "CD_RGI": "230016", "NM_RGI": "São Benedito - Ipu - Guaraciaba do Norte - Tianguá", "CD_CONCURB": null, "NM_CONCURB": null }, "geometry": { "type": "MultiPolygon", "coordinates": [ [ [ [ -40.979754699999944, -3.74359149999998 ], [ -40.981396899999936, -3.736762499999941 ], [ -40.981738, -3.735737899999947 ], [ -40.980408199999943, -3.735959099999945 ], [ -40.979126699999938, -3.73613759999995 ], [ -40.976745599999958, -3.735975699999926 ], [ -40.974423299999955, -3.736151399999926 ], [ -40.973007099999961, -3.736206 ], [ -40.971991899999978, -3.735823 ], [ -40.970801599999959, -3.735991399999932 ], [ -40.970250299999975, -3.73595679999994 ], [ -40.96916559999994, -3.735466799999926 ], [ -40.968150799999933, -3.735265499999969 ], [ -40.966444599999932, -3.734661 ], [ -40.963238099999955, -3.734147199999938 ], [ -40.961614, -3.733962099999928 ], [ -40.96068889999998, -3.733232399999963 ], [ -40.96044779999994, -3.733050699999978 ], [ -40.960066499999982, -3.732991099999936 ], [ -40.95980389999994, -3.73300839999996 ], [ -40.959580499999959, -3.73354489999997 ], [ -40.959502899999961, -3.734166199999947 ], [ -40.957512099999974, -3.735070299999961 ], [ -40.954899, -3.736244399999975 ], [ -40.953090299999985, -3.736585 ], [ -40.95222229999996, -3.736867399999937 ], [ -40.951216199999976, -3.737233299999957 ], [ -40.950274899999954, -3.73771069999998 ], [ -40.949366199999929, -3.738157799999954 ], [ -40.946433399999933, -3.740001599999971 ], [ -40.945644899999934, -3.739986499999929 ], [ -40.945192299999974, -3.739876599999945 ], [ -40.944879399999934, -3.73988849999995 ], [ -40.944889299999943, -3.742212299999949 ], [ -40.944663699999978, -3.743782599999975 ], [ -40.94456189999994, -3.744537799999932 ], [ -40.944289399999946, -3.746113199999968 ], [ -40.943986199999983, -3.748336399999971 ], [ -40.943965699999978, -3.748486899999932 ], [ -40.94690079999998, -3.748588299999938 ], [ -40.947679299999947, -3.748265499999945 ], [ -40.951364799999965, -3.748100799999975 ], [ -40.956543899999986, -3.747873299999981 ], [ -40.959101499999974, -3.747347899999966 ], [ -40.960404299999936, -3.747375299999931 ], [ -40.962810599999955, -3.74804469999998 ], [ -40.96509089999995, -3.748256499999968 ], [ -40.968209599999966, -3.748495699999978 ], [ -40.969408499999929, -3.748728799999981 ], [ -40.970876699999963, -3.74916 ], [ -40.971689199999958, -3.749373299999945 ], [ -40.974242299999958, -3.750070799999946 ], [ -40.975524699999937, -3.750699199999929 ], [ -40.976130199999943, -3.751019699999972 ], [ -40.97979289999995, -3.752743 ], [ -40.979990499999985, -3.752755599999944 ], [ -40.983316599999966, -3.751959299999953 ], [ -40.983362899999975, -3.751948199999958 ], [ -40.983384099999967, -3.751894099999959 ], [ -40.983866, -3.750662 ], [ -40.984377, -3.74981 ], [ -40.985685299999943, -3.747929599999964 ], [ -40.985757599999943, -3.747808099999929 ], [ -40.985935499999982, -3.74753069999997 ], [ -40.985100399999965, -3.745474199999933 ], [ -40.984173699999985, -3.74332579999998 ], [ -40.98369589999993, -3.742290099999934 ], [ -40.983191, -3.742556 ], [ -40.982502199999942, -3.742934299999945 ], [ -40.981645499999956, -3.743267499999945 ], [ -40.979754699999944, -3.74359149999998 ] ] ] ] } },
{ "type": "Feature", "properties": { "CD_REGIAO": "2", "NM_REGIAO": "Nordeste", "CD_UF": "23", "NM_UF": "Ceará", "CD_MUN": "2313401", "NM_MUN": "Tianguá", "CD_DIST": "231340105", "NM_DIST": "Tianguá", "CD_SUBDIST": "23134010500", "NM_SUBDIST": null, "CD_BAIRRO": "2313401003", "NM_BAIRRO": "Nenê Plácido", "CD_RGINT": "2306", "NM_RGINT": "Sobral", "CD_RGI": "230016", "NM_RGI": "São Benedito - Ipu - Guaraciaba do Norte - Tianguá", "CD_CONCURB": null, "NM_CONCURB": null }, "geometry": { "type": "MultiPolygon", "coordinates": [ [ [ [ -40.985530899999958, -3.724671699999931 ], [ -40.985749, -3.72463 ], [ -40.986381, -3.724535 ], [ -40.986854, -3.7245 ], [ -40.987103, -3.72447 ], [ -40.98785, -3.724299 ], [ -40.988673399999982, -3.724154899999974 ], [ -40.989062599999954, -3.724088399999971 ], [ -40.988791499999934, -3.722521299999926 ], [ -40.988459, -3.720303 ], [ -40.988377, -3.719969 ], [ -40.988028799999938, -3.718232 ], [ -40.98776, -3.716486099999941 ], [ -40.987522, -3.715776 ], [ -40.987224, -3.714135 ], [ -40.987206, -3.714116 ], [ -40.986946, -3.713779 ], [ -40.986825799999963, -3.713699099999928 ], [ -40.986606, -3.713553 ], [ -40.986333, -3.713342 ], [ -40.985828, -3.71301 ], [ -40.985709, -3.71291 ], [ -40.985355, -3.712607 ], [ -40.984663, -3.712095 ], [ -40.983529, -3.711273 ], [ -40.98127, -3.709832 ], [ -40.980973, -3.716579 ], [ -40.981568, -3.716952 ], [ -40.981823, -3.717103 ], [ -40.982023, -3.717174 ], [ -40.982159899999942, -3.717209899999943 ], [ -40.982305, -3.717248 ], [ -40.982727, -3.717327 ], [ -40.982808899999952, -3.717346799999973 ], [ -40.982368299999962, -3.720007599999974 ], [ -40.981395199999952, -3.724059 ], [ -40.981281199999955, -3.724578299999962 ], [ -40.982, -3.724783899999977 ], [ -40.982524099999978, -3.72489429999996 ], [ -40.982812499999966, -3.724885 ], [ -40.98348169999997, -3.724793099999943 ], [ -40.985530899999958, -3.724671699999931 ] ] ] ] } },
{ "type": "Feature", "properties": { "CD_REGIAO": "2", "NM_REGIAO": "Nordeste", "CD_UF": "23", "NM_UF": "Ceará", "CD_MUN": "2313401", "NM_MUN": "Tianguá", "CD_DIST": "231340105", "NM_DIST": "Tianguá", "CD_SUBDIST": "23134010500", "NM_SUBDIST": null, "CD_BAIRRO": "2313401006", "NM_BAIRRO": "Santo Antônio", "CD_RGINT": "2306", "NM_RGINT": "Sobral", "CD_RGI": "230016", "NM_RGI": "São Benedito - Ipu - Guaraciaba do Norte - Tianguá", "CD_CONCURB": null, "NM_CONCURB": null }, "geometry": { "type": "MultiPolygon", "coordinates": [ [ [ [ -41.00032269999997, -3.730208699999935 ], [ -41.000775799999985, -3.731014699999946 ], [ -41.002011499999981, -3.733355899999935 ], [ -41.003422399999977, -3.733529 ], [ -41.004700499999956, -3.733698299999958 ], [ -41.00543719999996, -3.733795399999963 ], [ -41.005470799999955, -3.733799799999929 ], [ -41.006253799999968, -3.733922599999971 ], [ -41.00828249999995, -3.734226899999953 ], [ -41.008454599999936, -3.734252699999956 ], [ -41.008699099999944, -3.734294899999952 ], [ -41.008822799999962, -3.734316199999967 ], [ -41.008987899999966, -3.734341599999937 ], [ -41.009075099999961, -3.734353599999963 ], [ -41.009252699999934, -3.73437789999997 ], [ -41.009334699999954, -3.73435539999997 ], [ -41.009555, -3.734295 ], [ -41.009889399999963, -3.734185 ], [ -41.01008, -3.734127899999976 ], [ -41.010345299999983, -3.734048499999972 ], [ -41.010501899999952, -3.733993 ], [ -41.010545399999955, -3.733977599999946 ], [ -41.011006599999973, -3.733840799999939 ], [ -41.011044799999979, -3.733829499999956 ], [ -41.011548499999947, -3.733689799999979 ], [ -41.012022499999944, -3.733545899999967 ], [ -41.012533499999961, -3.733387099999959 ], [ -41.012893199999951, -3.733281899999952 ], [ -41.013542299999983, -3.733088899999927 ], [ -41.014278699999977, -3.732986599999947 ], [ -41.017217699999946, -3.732027499999958 ], [ -41.018705099999977, -3.731588099999954 ], [ -41.019682499999931, -3.731299399999955 ], [ -41.021887099999958, -3.730602699999963 ], [ -41.023953699999936, -3.730757099999948 ], [ -41.023820899999976, -3.730591 ], [ -41.023221699999965, -3.729841 ], [ -41.017456899999956, -3.725062399999956 ], [ -41.012028699999973, -3.720592599999975 ], [ -41.011861499999952, -3.720652599999937 ], [ -41.010739299999955, -3.721055099999944 ], [ -41.010194099999978, -3.721249399999977 ], [ -41.008897599999955, -3.72170019999993 ], [ -41.007663099999945, -3.722125799999958 ], [ -41.006677599999932, -3.722465499999942 ], [ -41.002356299999974, -3.72394989999998 ], [ -41.001235899999983, -3.724301399999945 ], [ -41.001183199999957, -3.724380499999938 ], [ -41.001614299999972, -3.725067199999955 ], [ -41.002200399999936, -3.725901399999941 ], [ -41.003481, -3.728348 ], [ -40.999893799999938, -3.729463599999974 ], [ -41.00032269999997, -3.730208699999935 ] ] ] ] } },
{ "type": "Feature", "properties": { "CD_REGIAO": "2", "NM_REGIAO": "Nordeste", "CD_UF": "23", "NM_UF": "Ceará", "CD_MUN": "2313401", "NM_MUN": "Tianguá", "CD_DIST": "231340105", "NM_DIST": "Tianguá", "CD_SUBDIST": "23134010500", "NM_SUBDIST": null, "CD_BAIRRO": "2313401022", "NM_BAIRRO": "Antão", "CD_RGINT": "2306", "NM_RGINT": "Sobral", "CD_RGI": "230016", "NM_RGI": "São Benedito - Ipu - Guaraciaba do Norte - Tianguá", "CD_CONCURB": null, "NM_CONCURB": null }, "geometry": { "type": "MultiPolygon", "coordinates": [ [ [ [ -40.99815, -3.726078 ], [ -40.998327, -3.726397 ], [ -40.998493, -3.726696 ], [ -40.998636399999953, -3.72699369999998 ], [ -40.998947799999939, -3.727812799999981 ], [ -40.999203499999965, -3.728240399999947 ], [ -40.999337599999933, -3.728504399999963 ], [ -40.999459199999933, -3.728726599999959 ], [ -40.999595799999952, -3.728949599999964 ], [ -40.999802599999953, -3.729308499999945 ], [ -40.999893799999938, -3.729463599999974 ], [ -41.003481, -3.728348 ], [ -41.002200399999936, -3.725901399999941 ], [ -41.001614299999972, -3.725067199999955 ], [ -41.001183199999957, -3.724380499999938 ], [ -41.001235899999983, -3.724301399999945 ], [ -41.000964599999975, -3.723911899999962 ], [ -40.999867399999971, -3.724805799999956 ], [ -40.99815, -3.726078 ] ] ] ] } },
{ "type": "Feature", "properties": { "CD_REGIAO": "2", "NM_REGIAO": "Nordeste", "CD_UF": "23", "NM_UF": "Ceará", "CD_MUN": "2313401", "NM_MUN": "Tianguá", "CD_DIST": "231340105", "NM_DIST": "Tianguá", "CD_SUBDIST": "23134010500", "NM_SUBDIST": null, "CD_BAIRRO": "2313401007", "NM_BAIRRO": "Geraldo Saraiva", "CD_RGINT": "2306", "NM_RGINT": "Sobral", "CD_RGI": "230016", "NM_RGI": "São Benedito - Ipu - Guaraciaba do Norte - Tianguá", "CD_CONCURB": null, "NM_CONCURB": null }, "geometry": { "type": "MultiPolygon", "coordinates": [ [ [ [ -41.000701599999957, -3.722573 ], [ -41.000823199999957, -3.720563799999979 ], [ -40.998824499999955, -3.720359799999926 ], [ -40.998861, -3.71967049999995 ], [ -40.998236799999972, -3.719568099999947 ], [ -40.998314799999946, -3.71967049999995 ], [ -40.998263599999973, -3.720388599999978 ], [ -40.998156, -3.721208 ], [ -40.998081199999945, -3.722018899999966 ], [ -40.996497, -3.723111899999935 ], [ -40.997577899999953, -3.725051899999926 ], [ -40.99815, -3.726078 ], [ -40.999867399999971, -3.724805799999956 ], [ -41.000964599999975, -3.723911899999962 ], [ -41.001547099999982, -3.723416099999952 ], [ -41.000955, -3.722787 ], [ -41.000701599999957, -3.722573 ] ] ], [ [ [ -40.992229, -3.717484 ], [ -40.993224399999974, -3.718180899999936 ], [ -40.993682899999953, -3.718658099999971 ], [ -40.993968199999983, -3.718976599999962 ], [ -40.994306199999983, -3.71935389999993 ], [ -40.994917, -3.720322 ], [ -40.997024599999975, -3.719022099999961 ], [ -40.997422599999936, -3.718787299999974 ], [ -40.99836449999998, -3.71823269999993 ], [ -40.998669899999982, -3.715633399999945 ], [ -40.99906569999996, -3.711768699999936 ], [ -40.997141699999929, -3.711504899999966 ], [ -40.995947599999965, -3.710760099999959 ], [ -40.995699299999956, -3.710605199999975 ], [ -40.993410299999937, -3.708930199999941 ], [ -40.991859899999952, -3.707795699999963 ], [ -40.990154699999948, -3.706547899999975 ], [ -40.989407, -3.709270199999935 ], [ -40.988681799999938, -3.708740699999964 ], [ -40.988025099999959, -3.708261199999924 ], [ -40.987664699999982, -3.708849199999975 ], [ -40.986857599999951, -3.71347389999994 ], [ -40.986825799999963, -3.713699099999928 ], [ -40.986946, -3.713779 ], [ -40.987734, -3.714337 ], [ -40.987804199999971, -3.714387099999954 ], [ -40.988148, -3.714632 ], [ -40.988415, -3.714821 ], [ -40.98856, -3.714922 ], [ -40.989021, -3.715241 ], [ -40.989084, -3.715284 ], [ -40.989271, -3.715413299999966 ], [ -40.989528, -3.715591 ], [ -40.990078, -3.715972 ], [ -40.99023, -3.716106 ], [ -40.990391, -3.716216 ], [ -40.991747, -3.717152 ], [ -40.99203, -3.717347 ], [ -40.992229, -3.717484 ] ] ] ] } },
{ "type": "Feature", "properties": { "CD_REGIAO": "2", "NM_REGIAO": "Nordeste", "CD_UF": "23", "NM_UF": "Ceará", "CD_MUN": "2313401", "NM_MUN": "Tianguá", "CD_DIST": "231340105", "NM_DIST": "Tianguá", "CD_SUBDIST": "23134010500", "NM_SUBDIST": null, "CD_BAIRRO": "2313401014", "NM_BAIRRO": "Pitanga", "CD_RGINT": "2306", "NM_RGINT": "Sobral", "CD_RGI": "230016", "NM_RGI": "São Benedito - Ipu - Guaraciaba do Norte - Tianguá", "CD_CONCURB": null, "NM_CONCURB": null }, "geometry": { "type": "MultiPolygon", "coordinates": [ [ [ [ -40.963725299999965, -3.766819099999964 ], [ -40.963638499999945, -3.770109 ], [ -40.963460699999985, -3.77023 ], [ -40.962852699999985, -3.77064409999997 ], [ -40.961834099999976, -3.771337799999969 ], [ -40.960642899999982, -3.771333299999981 ], [ -40.960553899999979, -3.771358 ], [ -40.958298499999955, -3.771984499999974 ], [ -40.957725399999958, -3.772766 ], [ -40.957366199999967, -3.773033599999962 ], [ -40.956396899999959, -3.773755799999947 ], [ -40.956079199999976, -3.773971899999935 ], [ -40.955035099999975, -3.774681899999962 ], [ -40.953444699999977, -3.776227 ], [ -40.952066499999944, -3.778582 ], [ -40.949744499999952, -3.779437299999927 ], [ -40.948072899999943, -3.782035099999973 ], [ -40.947743399999979, -3.782391599999926 ], [ -40.947139499999935, -3.784442 ], [ -40.947133199999939, -3.784978699999954 ], [ -40.947400899999934, -3.785432199999946 ], [ -40.947435599999949, -3.785874399999955 ], [ -40.948877, -3.78694459999997 ], [ -40.952738599999975, -3.790317699999946 ], [ -40.956030299999952, -3.793807799999968 ], [ -40.958179399999949, -3.797472299999924 ], [ -40.960791699999959, -3.800220799999977 ], [ -40.962527899999941, -3.801391799999976 ], [ -40.970906499999955, -3.787488199999927 ], [ -40.974393299999974, -3.777905499999974 ], [ -40.976217299999973, -3.772749799999929 ], [ -40.976660099999947, -3.771472699999947 ], [ -40.975300499999946, -3.771781499999975 ], [ -40.975438699999984, -3.768044499999974 ], [ -40.975517199999956, -3.765922599999953 ], [ -40.973303399999963, -3.76754619999997 ], [ -40.971908099999951, -3.767711299999974 ], [ -40.970703599999979, -3.76775989999993 ], [ -40.96856669999994, -3.768222899999955 ], [ -40.967047699999966, -3.767742 ], [ -40.965092399999946, -3.767198899999926 ], [ -40.963725299999965, -3.766819099999964 ] ] ] ] } },
{ "type": "Feature", "properties": { "CD_REGIAO": "2", "NM_REGIAO": "Nordeste", "CD_UF": "23", "NM_UF": "Ceará", "CD_MUN": "2313401", "NM_MUN": "Tianguá", "CD_DIST": "231340105", "NM_DIST": "Tianguá", "CD_SUBDIST": "23134010500", "NM_SUBDIST": null, "CD_BAIRRO": "2313401025", "NM_BAIRRO": "Seminário", "CD_RGINT": "2306", "NM_RGINT": "Sobral", "CD_RGI": "230016", "NM_RGI": "São Benedito - Ipu - Guaraciaba do Norte - Tianguá", "CD_CONCURB": null, "NM_CONCURB": null }, "geometry": { "type": "MultiPolygon", "coordinates": [ [ [ [ -40.990468599999986, -3.722183099999938 ], [ -40.992605, -3.721752 ], [ -40.9933, -3.721596 ], [ -40.993624, -3.721522 ], [ -40.994122, -3.721409 ], [ -40.994569, -3.721309 ], [ -40.995381, -3.721125 ], [ -40.994917, -3.720322 ], [ -40.994306199999983, -3.71935389999993 ], [ -40.993968199999983, -3.718976599999962 ], [ -40.993682899999953, -3.718658099999971 ], [ -40.993224399999974, -3.718180899999936 ], [ -40.992229, -3.717484 ], [ -40.99203, -3.717347 ], [ -40.991747, -3.717152 ], [ -40.990391, -3.716216 ], [ -40.99023, -3.716106 ], [ -40.990078, -3.715972 ], [ -40.989528, -3.715591 ], [ -40.989271, -3.715413299999966 ], [ -40.989084, -3.715284 ], [ -40.989021, -3.715241 ], [ -40.98856, -3.714922 ], [ -40.988415, -3.714821 ], [ -40.988148, -3.714632 ], [ -40.987804199999971, -3.714387099999954 ], [ -40.987734, -3.714337 ], [ -40.986946, -3.713779 ], [ -40.987206, -3.714116 ], [ -40.987224, -3.714135 ], [ -40.987522, -3.715776 ], [ -40.98776, -3.716486099999941 ], [ -40.988028799999938, -3.718232 ], [ -40.988377, -3.719969 ], [ -40.988459, -3.720303 ], [ -40.988791499999934, -3.722521299999926 ], [ -40.990468599999986, -3.722183099999938 ] ] ] ] } },
{ "type": "Feature", "properties": { "CD_REGIAO": "2", "NM_REGIAO": "Nordeste", "CD_UF": "23", "NM_UF": "Ceará", "CD_MUN": "2313401", "NM_MUN": "Tianguá", "CD_DIST": "231340105", "NM_DIST": "Tianguá", "CD_SUBDIST": "23134010500", "NM_SUBDIST": null, "CD_BAIRRO": "2313401021", "NM_BAIRRO": "Zé Humberto", "CD_RGINT": "2306", "NM_RGINT": "Sobral", "CD_RGI": "230016", "NM_RGI": "São Benedito - Ipu - Guaraciaba do Norte - Tianguá", "CD_CONCURB": null, "NM_CONCURB": null }, "geometry": { "type": "MultiPolygon", "coordinates": [ [ [ [ -41.009075099999961, -3.734353599999963 ], [ -41.008987899999966, -3.734341599999937 ], [ -41.008822799999962, -3.734316199999967 ], [ -41.008699099999944, -3.734294899999952 ], [ -41.008454599999936, -3.734252699999956 ], [ -41.00828249999995, -3.734226899999953 ], [ -41.006253799999968, -3.733922599999971 ], [ -41.005470799999955, -3.733799799999929 ], [ -41.00543719999996, -3.733795399999963 ], [ -41.004700499999956, -3.733698299999958 ], [ -41.003422399999977, -3.733529 ], [ -41.002011499999981, -3.733355899999935 ], [ -41.002784399999939, -3.734644 ], [ -41.003451299999938, -3.735458799999947 ], [ -41.003647599999965, -3.735698599999978 ], [ -41.00423539999997, -3.736829099999966 ], [ -41.004696799999977, -3.737490799999932 ], [ -41.007477799999947, -3.738495099999966 ], [ -41.009314499999959, -3.737446899999952 ], [ -41.010279, -3.737088899999947 ], [ -41.012193599999932, -3.737075499999946 ], [ -41.023953699999936, -3.730757099999948 ], [ -41.021887099999958, -3.730602699999963 ], [ -41.019682499999931, -3.731299399999955 ], [ -41.018705099999977, -3.731588099999954 ], [ -41.017217699999946, -3.732027499999958 ], [ -41.014278699999977, -3.732986599999947 ], [ -41.013542299999983, -3.733088899999927 ], [ -41.012893199999951, -3.733281899999952 ], [ -41.012533499999961, -3.733387099999959 ], [ -41.012022499999944, -3.733545899999967 ], [ -41.011548499999947, -3.733689799999979 ], [ -41.011044799999979, -3.733829499999956 ], [ -41.011006599999973, -3.733840799999939 ], [ -41.010545399999955, -3.733977599999946 ], [ -41.010501899999952, -3.733993 ], [ -41.010345299999983, -3.734048499999972 ], [ -41.01008, -3.734127899999976 ], [ -41.009889399999963, -3.734185 ], [ -41.009555, -3.734295 ], [ -41.009334699999954, -3.73435539999997 ], [ -41.009252699999934, -3.73437789999997 ], [ -41.009075099999961, -3.734353599999963 ] ] ] ] } },
{ "type": "Feature", "properties": { "CD_REGIAO": "2", "NM_REGIAO": "Nordeste", "CD_UF": "23", "NM_UF": "Ceará", "CD_MUN": "2313401", "NM_MUN": "Tianguá", "CD_DIST": "231340105", "NM_DIST": "Tianguá", "CD_SUBDIST": "23134010500", "NM_SUBDIST": null, "CD_BAIRRO": "2313401015", "NM_BAIRRO": "Vereador João Albuquerque", "CD_RGINT": "2306", "NM_RGINT": "Sobral", "CD_RGI": "230016", "NM_RGI": "São Benedito - Ipu - Guaraciaba do Norte - Tianguá", "CD_CONCURB": null, "NM_CONCURB": null }, "geometry": { "type": "MultiPolygon", "coordinates": [ [ [ [ -41.002905599999963, -3.75236979999994 ], [ -41.002835199999936, -3.752421099999935 ], [ -41.002751199999977, -3.752482199999974 ], [ -40.998045499999932, -3.755907199999967 ], [ -40.998031499999968, -3.75591739999993 ], [ -40.976660099999947, -3.771472699999947 ], [ -40.976217299999973, -3.772749799999929 ], [ -40.974393299999974, -3.777905499999974 ], [ -40.970906499999955, -3.787488199999927 ], [ -40.962527899999941, -3.801391799999976 ], [ -40.966960399999948, -3.803988 ], [ -40.97492879999993, -3.805402499999957 ], [ -40.97592949999995, -3.805486299999927 ], [ -40.990090199999941, -3.775304799999958 ], [ -40.991171599999973, -3.775481 ], [ -40.994466199999977, -3.776017699999954 ], [ -40.99587269999995, -3.776302099999953 ], [ -40.996095, -3.776352499999973 ], [ -40.997929, -3.77676809999997 ], [ -40.998294499999929, -3.77664969999995 ], [ -40.999298, -3.776041199999952 ], [ -41.000218599999982, -3.774949799999945 ], [ -41.001059399999974, -3.773866699999928 ], [ -41.001821499999949, -3.772786799999949 ], [ -41.002529199999969, -3.771843 ], [ -41.003600399999982, -3.771742499999959 ], [ -41.004586099999983, -3.771774799999946 ], [ -41.004607199999953, -3.771694099999934 ], [ -41.005177699999933, -3.770624199999929 ], [ -41.007516799999962, -3.771629599999926 ], [ -41.011046799999974, -3.769528799999932 ], [ -41.013047899999947, -3.785836199999949 ], [ -41.009301799999946, -3.797557299999937 ], [ -41.008883799999978, -3.797758199999976 ], [ -41.025171199999932, -3.806143399999939 ], [ -41.03082059999997, -3.772001899999964 ], [ -41.032460599999979, -3.765386 ], [ -41.011194899999964, -3.746339099999943 ], [ -41.010754299999974, -3.746657099999936 ], [ -41.008499399999948, -3.748304299999972 ], [ -41.002905599999963, -3.75236979999994 ] ] ] ] } },
{ "type": "Feature", "properties": { "CD_REGIAO": "2", "NM_REGIAO": "Nordeste", "CD_UF": "23", "NM_UF": "Ceará", "CD_MUN": "2313401", "NM_MUN": "Tianguá", "CD_DIST": "231340105", "NM_DIST": "Tianguá", "CD_SUBDIST": "23134010500", "NM_SUBDIST": null, "CD_BAIRRO": "2313401020", "NM_BAIRRO": "Industrial", "CD_RGINT": "2306", "NM_RGINT": "Sobral", "CD_RGI": "230016", "NM_RGI": "São Benedito - Ipu - Guaraciaba do Norte - Tianguá", "CD_CONCURB": null, "NM_CONCURB": null }, "geometry": { "type": "MultiPolygon", "coordinates": [ [ [ [ -41.03082059999997, -3.772001899999964 ], [ -41.031437299999936, -3.774104 ], [ -41.033490499999971, -3.78087759999994 ], [ -41.034656599999948, -3.781589199999928 ], [ -41.036001, -3.782599 ], [ -41.036428, -3.783426199999951 ], [ -41.036450899999977, -3.78369129999993 ], [ -41.0363, -3.784662599999933 ], [ -41.036041399999931, -3.785236199999929 ], [ -41.036003, -3.785710299999948 ], [ -41.035611699999947, -3.787476099999935 ], [ -41.034143799999981, -3.791385799999944 ], [ -41.033661499999937, -3.793208399999969 ], [ -41.034300599999938, -3.794901299999935 ], [ -41.034452099999953, -3.796004 ], [ -41.035195399999964, -3.798055799999929 ], [ -41.035390699999937, -3.798553199999958 ], [ -41.035409899999934, -3.800742199999945 ], [ -41.035673699999961, -3.801173099999971 ], [ -41.037357699999973, -3.801992499999926 ], [ -41.038573299999939, -3.801842 ], [ -41.040352799999937, -3.80122769999997 ], [ -41.041867399999944, -3.800434399999972 ], [ -41.04244749999998, -3.799866 ], [ -41.043081299999983, -3.799488799999949 ], [ -41.045215399999961, -3.79698929999995 ], [ -41.046782299999961, -3.796384299999943 ], [ -41.048335899999984, -3.795859399999927 ], [ -41.05209009999993, -3.793683499999929 ], [ -41.050594199999978, -3.781589899999972 ], [ -41.032460599999979, -3.765386 ], [ -41.03082059999997, -3.772001899999964 ] ] ] ] } },
{ "type": "Feature", "properties": { "CD_REGIAO": "2", "NM_REGIAO": "Nordeste", "CD_UF": "23", "NM_UF": "Ceará", "CD_MUN": "2313401", "NM_MUN": "Tianguá", "CD_DIST": "231340105", "NM_DIST": "Tianguá", "CD_SUBDIST": "23134010500", "NM_SUBDIST": null, "CD_BAIRRO": "2313401010", "NM_BAIRRO": "Dom Timóteo", "CD_RGINT": "2306", "NM_RGINT": "Sobral", "CD_RGI": "230016", "NM_RGI": "São Benedito - Ipu - Guaraciaba do Norte - Tianguá", "CD_CONCURB": null, "NM_CONCURB": null }, "geometry": { "type": "MultiPolygon", "coordinates": [ [ [ [ -40.989679599999931, -3.735098499999935 ], [ -40.989495, -3.735059 ], [ -40.988946, -3.735059 ], [ -40.988489, -3.735013 ], [ -40.98826, -3.734648 ], [ -40.987574, -3.734374 ], [ -40.986933, -3.734192 ], [ -40.986522, -3.734146 ], [ -40.986064, -3.734055 ], [ -40.985881, -3.733872 ], [ -40.98579, -3.733553 ], [ -40.985469, -3.733279 ], [ -40.98492, -3.733005 ], [ -40.984051199999953, -3.732722399999943 ], [ -40.983442799999978, -3.732596399999977 ], [ -40.982824599999958, -3.732311899999956 ], [ -40.98211809999998, -3.732037099999957 ], [ -40.981840799999929, -3.735429299999964 ], [ -40.981738, -3.735737899999947 ], [ -40.981396899999936, -3.736762499999941 ], [ -40.979754699999944, -3.74359149999998 ], [ -40.981645499999956, -3.743267499999945 ], [ -40.982502199999942, -3.742934299999945 ], [ -40.983191, -3.742556 ], [ -40.98369589999993, -3.742290099999934 ], [ -40.984173699999985, -3.74332579999998 ], [ -40.985100399999965, -3.745474199999933 ], [ -40.985935499999982, -3.74753069999997 ], [ -40.986185299999931, -3.747079299999939 ], [ -40.98718839999998, -3.745603099999926 ], [ -40.987668099999951, -3.744952 ], [ -40.988093499999934, -3.744301199999938 ], [ -40.988479899999959, -3.743724899999961 ], [ -40.988817, -3.743188 ], [ -40.989023, -3.742899 ], [ -40.989221, -3.74262 ], [ -40.98979479999997, -3.741659199999958 ], [ -40.990037399999949, -3.74127969999995 ], [ -40.99037, -3.740777 ], [ -40.990818, -3.739943 ], [ -40.990916, -3.739769 ], [ -40.991082, -3.738647 ], [ -40.991205, -3.737549 ], [ -40.991232699999955, -3.737301499999944 ], [ -40.991345, -3.736299 ], [ -40.991418, -3.735788 ], [ -40.991425, -3.735723 ], [ -40.990501, -3.735379 ], [ -40.990135, -3.735196 ], [ -40.989679599999931, -3.735098499999935 ] ] ] ] } },
{ "type": "Feature", "properties": { "CD_REGIAO": "2", "NM_REGIAO": "Nordeste", "CD_UF": "23", "NM_UF": "Ceará", "CD_MUN": "2313401", "NM_MUN": "Tianguá", "CD_DIST": "231340105", "NM_DIST": "Tianguá", "CD_SUBDIST": "23134010500", "NM_SUBDIST": null, "CD_BAIRRO": "2313401011", "NM_BAIRRO": "Vereadora Maria Paixão", "CD_RGINT": "2306", "NM_RGINT": "Sobral", "CD_RGI": "230016", "NM_RGI": "São Benedito - Ipu - Guaraciaba do Norte - Tianguá", "CD_CONCURB": null, "NM_CONCURB": null }, "geometry": { "type": "MultiPolygon", "coordinates": [ [ [ [ -40.952931299999932, -3.730476199999941 ], [ -40.953329499999938, -3.730655599999977 ], [ -40.956537499999968, -3.730810899999938 ], [ -40.957042599999966, -3.731030399999952 ], [ -40.958164599999975, -3.730794799999956 ], [ -40.958946399999945, -3.730419799999936 ], [ -40.959697299999959, -3.730393299999946 ], [ -40.959989399999984, -3.730817099999967 ], [ -40.95980389999994, -3.73300839999996 ], [ -40.960066499999982, -3.732991099999936 ], [ -40.96044779999994, -3.733050699999978 ], [ -40.96068889999998, -3.733232399999963 ], [ -40.961614, -3.733962099999928 ], [ -40.963238099999955, -3.734147199999938 ], [ -40.966444599999932, -3.734661 ], [ -40.968150799999933, -3.735265499999969 ], [ -40.96916559999994, -3.735466799999926 ], [ -40.970250299999975, -3.73595679999994 ], [ -40.970801599999959, -3.735991399999932 ], [ -40.971991899999978, -3.735823 ], [ -40.973007099999961, -3.736206 ], [ -40.974423299999955, -3.736151399999926 ], [ -40.976745599999958, -3.735975699999926 ], [ -40.979126699999938, -3.73613759999995 ], [ -40.980408199999943, -3.735959099999945 ], [ -40.981738, -3.735737899999947 ], [ -40.981840799999929, -3.735429299999964 ], [ -40.98211809999998, -3.732037099999957 ], [ -40.982617799999957, -3.727988399999958 ], [ -40.982196099999953, -3.727666 ], [ -40.979129899999975, -3.725313599999936 ], [ -40.978882699999986, -3.724874599999964 ], [ -40.978196399999945, -3.724600799999962 ], [ -40.974350099999981, -3.722492399999965 ], [ -40.972751099999982, -3.722486899999979 ], [ -40.969947099999956, -3.721428099999969 ], [ -40.969413199999963, -3.720952499999953 ], [ -40.968744099999981, -3.720707899999979 ], [ -40.967234399999938, -3.720596899999975 ], [ -40.966400599999929, -3.720355099999949 ], [ -40.965610199999958, -3.720049299999971 ], [ -40.965078199999937, -3.719652499999938 ], [ -40.964440799999977, -3.719459399999948 ], [ -40.963312, -3.718906799999957 ], [ -40.962300099999936, -3.71887339999995 ], [ -40.961390699999981, -3.718633599999976 ], [ -40.96015959999994, -3.718655399999932 ], [ -40.959350099999938, -3.718257899999969 ], [ -40.958531199999982, -3.718138099999976 ], [ -40.957838, -3.718405699999948 ], [ -40.955261699999937, -3.718286199999966 ], [ -40.953306399999974, -3.717536499999937 ], [ -40.951509099999953, -3.71673809999993 ], [ -40.950804599999969, -3.716758 ], [ -40.950121699999954, -3.717023099999949 ], [ -40.949800899999957, -3.71780119999994 ], [ -40.949778199999969, -3.719012 ], [ -40.949252099999967, -3.71960219999994 ], [ -40.94984489999996, -3.720067799999981 ], [ -40.949692599999935, -3.722776099999976 ], [ -40.951543399999935, -3.722603099999958 ], [ -40.95196569999996, -3.724738799999955 ], [ -40.951934, -3.725974599999972 ], [ -40.952130199999942, -3.72683619999998 ], [ -40.952527299999929, -3.727578899999969 ], [ -40.952800099999934, -3.727926299999979 ], [ -40.952931299999932, -3.730476199999941 ] ] ] ] } },
{ "type": "Feature", "properties": { "CD_REGIAO": "2", "NM_REGIAO": "Nordeste", "CD_UF": "23", "NM_UF": "Ceará", "CD_MUN": "2313401", "NM_MUN": "Tianguá", "CD_DIST": "231340105", "NM_DIST": "Tianguá", "CD_SUBDIST": "23134010500", "NM_SUBDIST": null, "CD_BAIRRO": "2313401002", "NM_BAIRRO": "Frei Galvão", "CD_RGINT": "2306", "NM_RGINT": "Sobral", "CD_RGI": "230016", "NM_RGI": "São Benedito - Ipu - Guaraciaba do Norte - Tianguá", "CD_CONCURB": null, "NM_CONCURB": null }, "geometry": { "type": "MultiPolygon", "coordinates": [ [ [ [ -40.992847, -3.723628 ], [ -40.994898, -3.723348 ], [ -40.996497, -3.723111899999935 ], [ -40.995381, -3.721125 ], [ -40.994569, -3.721309 ], [ -40.994122, -3.721409 ], [ -40.993624, -3.721522 ], [ -40.9933, -3.721596 ], [ -40.992605, -3.721752 ], [ -40.990468599999986, -3.722183099999938 ], [ -40.988791499999934, -3.722521299999926 ], [ -40.989062599999954, -3.724088399999971 ], [ -40.990873399999941, -3.723892299999932 ], [ -40.992847, -3.723628 ] ] ], [ [ [ -40.99836449999998, -3.71823269999993 ], [ -40.998291599999959, -3.719125 ], [ -40.998236799999972, -3.719568099999947 ], [ -40.998861, -3.71967049999995 ], [ -40.998824499999955, -3.720359799999926 ], [ -41.000823199999957, -3.720563799999979 ], [ -41.000701599999957, -3.722573 ], [ -41.000955, -3.722787 ], [ -41.001547099999982, -3.723416099999952 ], [ -41.00405109999997, -3.721642499999973 ], [ -41.004097499999943, -3.721173599999929 ], [ -41.004096, -3.720856199999957 ], [ -41.004290599999933, -3.719617299999925 ], [ -41.004593099999965, -3.719007 ], [ -41.004551899999967, -3.718842699999925 ], [ -41.004560899999944, -3.718597899999963 ], [ -41.005037199999947, -3.716091499999948 ], [ -41.005470399999979, -3.713286 ], [ -41.00038909999995, -3.711954499999933 ], [ -40.99906569999996, -3.711768699999936 ], [ -40.998669899999982, -3.715633399999945 ], [ -40.99836449999998, -3.71823269999993 ] ] ] ] } },
{ "type": "Feature", "properties": { "CD_REGIAO": "2", "NM_REGIAO": "Nordeste", "CD_UF": "23", "NM_UF": "Ceará", "CD_MUN": "2313401", "NM_MUN": "Tianguá", "CD_DIST": "231340105", "NM_DIST": "Tianguá", "CD_SUBDIST": "23134010500", "NM_SUBDIST": null, "CD_BAIRRO": "2313401024", "NM_BAIRRO": "Afonso Maranguape", "CD_RGINT": "2306", "NM_RGINT": "Sobral", "CD_RGI": "230016", "NM_RGI": "São Benedito - Ipu - Guaraciaba do Norte - Tianguá", "CD_CONCURB": null, "NM_CONCURB": null }, "geometry": { "type": "MultiPolygon", "coordinates": [ [ [ [ -40.980433, -3.716285199999959 ], [ -40.980973, -3.716579 ], [ -40.98127, -3.709832 ], [ -40.979952, -3.708861 ], [ -40.978876899999932, -3.708190499999944 ], [ -40.978164, -3.707639 ], [ -40.977518, -3.707224 ], [ -40.977175, -3.706808 ], [ -40.976983, -3.706566 ], [ -40.976839, -3.706323 ], [ -40.976627, -3.70592 ], [ -40.976491, -3.705265 ], [ -40.97636, -3.70428 ], [ -40.975882099999978, -3.699576299999933 ], [ -40.975777299999947, -3.698815199999956 ], [ -40.975704199999939, -3.697735799999975 ], [ -40.975603199999966, -3.696697099999938 ], [ -40.975483199999985, -3.695351099999925 ], [ -40.975533199999973, -3.693815399999949 ], [ -40.975843099999963, -3.692358299999967 ], [ -40.976279399999953, -3.69137429999995 ], [ -40.976444599999979, -3.690856399999973 ], [ -40.976486499999965, -3.690357699999936 ], [ -40.976677, -3.689627099999939 ], [ -40.976698699999929, -3.688919599999963 ], [ -40.976830399999983, -3.687984799999981 ], [ -40.975682499999948, -3.688931 ], [ -40.95647619999994, -3.704057299999931 ], [ -40.953389099999981, -3.707222599999966 ], [ -40.951952199999937, -3.707889399999942 ], [ -40.950859399999956, -3.707876299999953 ], [ -40.949663099999952, -3.708588099999929 ], [ -40.948634199999958, -3.710561 ], [ -40.948304899999982, -3.710591499999964 ], [ -40.949236399999961, -3.712390899999946 ], [ -40.950880299999938, -3.71504159999995 ], [ -40.951509099999953, -3.71673809999993 ], [ -40.953306399999974, -3.717536499999937 ], [ -40.955261699999937, -3.718286199999966 ], [ -40.957838, -3.718405699999948 ], [ -40.958531199999982, -3.718138099999976 ], [ -40.959350099999938, -3.718257899999969 ], [ -40.96015959999994, -3.718655399999932 ], [ -40.961390699999981, -3.718633599999976 ], [ -40.962300099999936, -3.71887339999995 ], [ -40.963312, -3.718906799999957 ], [ -40.964440799999977, -3.719459399999948 ], [ -40.965078199999937, -3.719652499999938 ], [ -40.965610199999958, -3.720049299999971 ], [ -40.966400599999929, -3.720355099999949 ], [ -40.967234399999938, -3.720596899999975 ], [ -40.968744099999981, -3.720707899999979 ], [ -40.969413199999963, -3.720952499999953 ], [ -40.969947099999956, -3.721428099999969 ], [ -40.972751099999982, -3.722486899999979 ], [ -40.974350099999981, -3.722492399999965 ], [ -40.978196399999945, -3.724600799999962 ], [ -40.978882699999986, -3.724874599999964 ], [ -40.979129899999975, -3.725313599999936 ], [ -40.982196099999953, -3.727666 ], [ -40.98249009999995, -3.726270199999931 ], [ -40.982812499999966, -3.724885 ], [ -40.982524099999978, -3.72489429999996 ], [ -40.982, -3.724783899999977 ], [ -40.981281199999955, -3.724578299999962 ], [ -40.981395199999952, -3.724059 ], [ -40.980676, -3.723942699999952 ], [ -40.981269, -3.721089099999972 ], [ -40.979550599999982, -3.720712099999957 ], [ -40.980433, -3.716285199999959 ] ] ] ] } },
{ "type": "Feature", "properties": { "CD_REGIAO": "2", "NM_REGIAO": "Nordeste", "CD_UF": "23", "NM_UF": "Ceará", "CD_MUN": "2313401", "NM_MUN": "Tianguá", "CD_DIST": "231340105", "NM_DIST": "Tianguá", "CD_SUBDIST": "23134010500", "NM_SUBDIST": null, "CD_BAIRRO": "2313401023", "NM_BAIRRO": "Paturi", "CD_RGINT": "2306", "NM_RGINT": "Sobral", "CD_RGI": "230016", "NM_RGI": "São Benedito - Ipu - Guaraciaba do Norte - Tianguá", "CD_CONCURB": null, "NM_CONCURB": null }, "geometry": { "type": "MultiPolygon", "coordinates": [ [ [ [ -40.982159899999942, -3.717209899999943 ], [ -40.982023, -3.717174 ], [ -40.981823, -3.717103 ], [ -40.981568, -3.716952 ], [ -40.980973, -3.716579 ], [ -40.980433, -3.716285199999959 ], [ -40.979550599999982, -3.720712099999957 ], [ -40.981269, -3.721089099999972 ], [ -40.980676, -3.723942699999952 ], [ -40.981395199999952, -3.724059 ], [ -40.982368299999962, -3.720007599999974 ], [ -40.982808899999952, -3.717346799999973 ], [ -40.982727, -3.717327 ], [ -40.982305, -3.717248 ], [ -40.982159899999942, -3.717209899999943 ] ] ] ] } },
{ "type": "Feature", "properties": { "CD_REGIAO": "2", "NM_REGIAO": "Nordeste", "CD_UF": "23", "NM_UF": "Ceará", "CD_MUN": "2313401", "NM_MUN": "Tianguá", "CD_DIST": "231340105", "NM_DIST": "Tianguá", "CD_SUBDIST": "23134010500", "NM_SUBDIST": null, "CD_BAIRRO": "2313401004", "NM_BAIRRO": "Laurão", "CD_RGINT": "2306", "NM_RGINT": "Sobral", "CD_RGI": "230016", "NM_RGI": "São Benedito - Ipu - Guaraciaba do Norte - Tianguá", "CD_CONCURB": null, "NM_CONCURB": null }, "geometry": { "type": "MultiPolygon", "coordinates": [ [ [ [ -40.986569, -3.73028979999998 ], [ -40.987552799999946, -3.730170899999962 ], [ -40.988354699999945, -3.730045599999926 ], [ -40.989400199999977, -3.729890799999964 ], [ -40.989295699999957, -3.729089299999941 ], [ -40.989178, -3.728038099999935 ], [ -40.988993299999947, -3.726459499999976 ], [ -40.988673399999982, -3.724154899999974 ], [ -40.98785, -3.724299 ], [ -40.987103, -3.72447 ], [ -40.986854, -3.7245 ], [ -40.986381, -3.724535 ], [ -40.985749, -3.72463 ], [ -40.985530899999958, -3.724671699999931 ], [ -40.98348169999997, -3.724793099999943 ], [ -40.982812499999966, -3.724885 ], [ -40.98249009999995, -3.726270199999931 ], [ -40.982196099999953, -3.727666 ], [ -40.982617799999957, -3.727988399999958 ], [ -40.98211809999998, -3.732037099999957 ], [ -40.982824599999958, -3.732311899999956 ], [ -40.983442799999978, -3.732596399999977 ], [ -40.984051199999953, -3.732722399999943 ], [ -40.98492, -3.733005 ], [ -40.985469, -3.733279 ], [ -40.98579, -3.733553 ], [ -40.985881, -3.733872 ], [ -40.986064, -3.734055 ], [ -40.986522, -3.734146 ], [ -40.986933, -3.734192 ], [ -40.987574, -3.734374 ], [ -40.98826, -3.734648 ], [ -40.988489, -3.735013 ], [ -40.988946, -3.735059 ], [ -40.989495, -3.735059 ], [ -40.989679599999931, -3.735098499999935 ], [ -40.990135, -3.735196 ], [ -40.990501, -3.735379 ], [ -40.991425, -3.735723 ], [ -40.991907899999944, -3.732524299999966 ], [ -40.990511, -3.732221799999934 ], [ -40.990260099999944, -3.730956499999934 ], [ -40.988250499999936, -3.730848199999969 ], [ -40.987478199999941, -3.730767299999968 ], [ -40.98649759999995, -3.73060739999994 ], [ -40.986569, -3.73028979999998 ] ] ] ] } },
{ "type": "Feature", "properties": { "CD_REGIAO": "2", "NM_REGIAO": "Nordeste", "CD_UF": "23", "NM_UF": "Ceará", "CD_MUN": "2313401", "NM_MUN": "Tianguá", "CD_DIST": "231340105", "NM_DIST": "Tianguá", "CD_SUBDIST": "23134010500", "NM_SUBDIST": null, "CD_BAIRRO": "2313401019", "NM_BAIRRO": "João Nunes", "CD_RGINT": "2306", "NM_RGINT": "Sobral", "CD_RGI": "230016", "NM_RGI": "São Benedito - Ipu - Guaraciaba do Norte - Tianguá", "CD_CONCURB": null, "NM_CONCURB": null }, "geometry": { "type": "MultiPolygon", "coordinates": [ [ [ [ -40.990154699999948, -3.706547899999975 ], [ -40.991859899999952, -3.707795699999963 ], [ -40.993410299999937, -3.708930199999941 ], [ -40.995699299999956, -3.710605199999975 ], [ -40.996786699999973, -3.710194799999954 ], [ -40.99743239999998, -3.709933399999954 ], [ -40.998184799999933, -3.709665899999948 ], [ -40.999403699999959, -3.708634099999927 ], [ -40.999434099999974, -3.708597599999962 ], [ -41.000292199999933, -3.707565699999975 ], [ -41.001030199999946, -3.706796899999972 ], [ -41.001629899999955, -3.705951299999981 ], [ -41.002761899999939, -3.70426759999998 ], [ -41.001787099999945, -3.701511 ], [ -41.002063499999963, -3.700754899999936 ], [ -41.002967499999954, -3.699632 ], [ -41.00621179999996, -3.696110199999964 ], [ -40.994058499999937, -3.689324399999975 ], [ -40.993508899999938, -3.689017499999977 ], [ -40.993612599999949, -3.688562299999944 ], [ -40.980708099999958, -3.683969 ], [ -40.980578399999956, -3.684084799999937 ], [ -40.976847199999952, -3.687174 ], [ -40.976829399999986, -3.687559699999952 ], [ -40.976830299999961, -3.687734 ], [ -40.976830399999983, -3.687984799999981 ], [ -40.976698699999929, -3.688919599999963 ], [ -40.976677, -3.689627099999939 ], [ -40.976486499999965, -3.690357699999936 ], [ -40.976444599999979, -3.690856399999973 ], [ -40.976279399999953, -3.69137429999995 ], [ -40.975843099999963, -3.692358299999967 ], [ -40.975533199999973, -3.693815399999949 ], [ -40.975483199999985, -3.695351099999925 ], [ -40.975603199999966, -3.696697099999938 ], [ -40.975704199999939, -3.697735799999975 ], [ -40.975777299999947, -3.698815199999956 ], [ -40.975882099999978, -3.699576299999933 ], [ -40.97636, -3.70428 ], [ -40.976491, -3.705265 ], [ -40.976627, -3.70592 ], [ -40.976839, -3.706323 ], [ -40.976983, -3.706566 ], [ -40.977175, -3.706808 ], [ -40.977518, -3.707224 ], [ -40.978164, -3.707639 ], [ -40.978876899999932, -3.708190499999944 ], [ -40.979952, -3.708861 ], [ -40.98127, -3.709832 ], [ -40.983529, -3.711273 ], [ -40.984663, -3.712095 ], [ -40.985355, -3.712607 ], [ -40.985709, -3.71291 ], [ -40.985828, -3.71301 ], [ -40.986333, -3.713342 ], [ -40.986606, -3.713553 ], [ -40.986825799999963, -3.713699099999928 ], [ -40.986857599999951, -3.71347389999994 ], [ -40.987664699999982, -3.708849199999975 ], [ -40.988025099999959, -3.708261199999924 ], [ -40.988681799999938, -3.708740699999964 ], [ -40.989407, -3.709270199999935 ], [ -40.990154699999948, -3.706547899999975 ] ] ] ] } }
]
}
