{
"type": "FeatureCollection",
"name": "tiangua2",
"crs": { "type": "name", "properties": { "name": "urn:ogc:def:crs:OGC:1.3:CRS84" } },
"features": [
{ "type": "Feature", "properties": { "CD_SETOR": "231340105000003", "SITUACAO": "Urbana", "CD_SIT": "1", "CD_TIPO": "0", "AREA_KM2": 0.084389828164326997, "CD_REGIAO": "2", "NM_REGIAO": "Nordeste", "CD_UF": "23", "NM_UF": "Ceará", "CD_MUN": "2313401", "NM_MUN": "Tianguá", "CD_DIST": "231340105", "NM_DIST": "Tianguá", "CD_SUBDIST": "23134010500", "NM_SUBDIST": null, "CD_BAIRRO": "2313401003", "NM_BAIRRO": "Nenê Plácido", "CD_NU": null, "NM_NU": null, "CD_FCU": null, "NM_FCU": null, "CD_AGLOM": null, "NM_AGLOM": null, "CD_RGINT": "2306", "NM_RGINT": "Sobral", "CD_RGI": "230016", "NM_RGI": "São Benedito - Ipu - Guaraciaba do Norte - Tianguá", "CD_CONCURB": null, "NM_CONCURB": null }, "geometry": { "type": "MultiPolygon", "coordinates": [ [ [ [ -41.049575199999936, -3.842325199999948 ], [ -41.050170499999979, -3.841985699999952 ], [ -41.050717499999962, -3.841951699999925 ], [ -41.051583799999946, -3.842308499999945 ], [ -41.053075799999931, -3.841603599999928 ], [ -41.053775599999938, -3.84103529999993 ], [ -41.054675299999985, -3.839955099999941 ], [ -41.055500099999961, -3.840181899999948 ], [ -41.056588899999952, -3.839959799999974 ], [ -41.058154599999966, -3.839804699999945 ], [ -41.066159699999957, -3.841124899999954 ], [ -41.069693399999949, -3.839932199999964 ], [ -41.075761599999964, -3.838003799999967 ], [ -41.084169, -3.83829419999995 ], [ -41.086262899999952, -3.83871709999994 ], [ -41.088148, -3.839097799999934 ], [ -41.089167299999986, -3.840015199999925 ], [ -41.090516899999955, -3.841204699999935 ], [ -41.09491479999997, -3.84293839999998 ], [ -41.099075499999969, -3.844128299999966 ], [ -41.102483499999948, -3.844397199999946 ], [ -41.109628599999951, -3.844802699999946 ], [ -41.112492199999963, -3.845258499999943 ], [ -41.115289099999984, -3.844737299999963 ], [ -41.127229299999954, -3.843643 ], [ -41.128265299999953, -3.843652399999939 ], [ -41.130862299999933, -3.84417209999998 ], [ -41.131887499999948, -3.844095899999957 ], [ -41.133369499999958, -3.845395699999926 ], [ -41.139766299999962, -3.851923 ], [ -41.143497299999979, -3.85575069999993 ], [ -41.144124799999929, -3.856394499999965 ], [ -41.145318599999939, -3.857635399999936 ], [ -41.146294699999942, -3.858636199999978 ], [ -41.148804499999983, -3.861209699999961 ], [ -41.15177, -3.864268699999968 ], [ -41.154691499999956, -3.866873299999952 ], [ -41.156337399999984, -3.86824409999997 ], [ -41.16002229999998, -3.871373 ], [ -41.160901099999933, -3.872160599999972 ], [ -41.161905199999978, -3.872825199999966 ], [ -41.162006499999961, -3.872868899999958 ], [ -41.162608499999976, -3.873128399999928 ], [ -41.163311599999929, -3.873347899999942 ], [ -41.164341099999945, -3.873524199999963 ], [ -41.164377799999954, -3.873530499999958 ], [ -41.170729799999947, -3.874409199999945 ], [ -41.172915799999942, -3.87470339999993 ], [ -41.174739099999954, -3.874937099999954 ], [ -41.17687559999996, -3.875237199999958 ], [ -41.177334899999948, -3.875344599999949 ], [ -41.177824299999941, -3.875584 ], [ -41.177885099999969, -3.875624699999946 ], [ -41.178322799999933, -3.875923599999965 ], [ -41.17872669999997, -3.876481 ], [ -41.178996699999971, -3.877048099999968 ], [ -41.180623199999957, -3.883808699999975 ], [ -41.181559499999935, -3.887599499999965 ], [ -41.182465, -3.890994499999977 ], [ -41.182803099999944, -3.891492699999958 ], [ -41.183055099999933, -3.891783 ], [ -41.183227, -3.89194759999998 ], [ -41.183441499999958, -3.892040299999962 ], [ -41.184733599999959, -3.892085699999939 ], [ -41.185092299999951, -3.89220819999997 ], [ -41.185258199999964, -3.892347399999949 ], [ -41.186454899999944, -3.892017399999929 ], [ -41.189288799999929, -3.890173 ], [ -41.189993099999981, -3.889941599999929 ], [ -41.191303599999969, -3.891210099999967 ], [ -41.19139389999998, -3.891965099999936 ], [ -41.192276099999958, -3.892381399999977 ], [ -41.193219, -3.893228 ], [ -41.194163399999979, -3.894660699999974 ], [ -41.194594099999961, -3.895448899999963 ], [ -41.19623729999995, -3.895432699999958 ], [ -41.198774499999956, -3.895796799999971 ], [ -41.200004199999967, -3.896826899999951 ], [ -41.204902, -3.899289199999942 ], [ -41.207531499999959, -3.899695399999928 ], [ -41.208788399999946, -3.899259599999937 ], [ -41.210989799999936, -3.899747199999979 ], [ -41.214644399999941, -3.899390699999969 ], [ -41.21658919999993, -3.899248199999931 ], [ -41.219254499999977, -3.900167799999963 ], [ -41.223992899999985, -3.898763599999938 ], [ -41.232234, -3.896736699999963 ], [ -41.235221799999977, -3.895957599999974 ], [ -41.236744199999976, -3.895303 ], [ -41.238761899999929, -3.894656599999962 ], [ -41.239571499999954, -3.894597 ], [ -41.240533899999946, -3.894718799999964 ], [ -41.241706599999929, -3.895146199999942 ], [ -41.242031499999939, -3.895528 ], [ -41.245108099999982, -3.89545279999993 ], [ -41.245671499999958, -3.896426899999938 ], [ -41.24569409999998, -3.896301 ], [ -41.244684, -3.893344399999933 ], [ -41.246578399999976, -3.884521699999937 ], [ -41.247609299999965, -3.882288199999948 ], [ -41.253501599999936, -3.875928199999976 ], [ -41.255365899999958, -3.872889699999973 ], [ -41.258857, -3.870278399999961 ], [ -41.259696399999939, -3.868727699999965 ], [ -41.259954899999968, -3.864751199999944 ], [ -41.261230499999954, -3.864026199999955 ], [ -41.261258199999929, -3.864010399999927 ], [ -41.266911199999981, -3.862680199999943 ], [ -41.266942399999948, -3.86267289999995 ], [ -41.267757099999983, -3.861849899999925 ], [ -41.267848299999969, -3.861180499999932 ], [ -41.266932699999984, -3.860516599999926 ], [ -41.266791599999976, -3.858889699999963 ], [ -41.27010219999994, -3.854447499999935 ], [ -41.270535199999983, -3.853084199999955 ], [ -41.270418799999959, -3.852268599999945 ], [ -41.268069799999978, -3.848317299999962 ], [ -41.268956699999933, -3.845924399999944 ], [ -41.268581299999937, -3.844493399999976 ], [ -41.271302499999933, -3.841917099999932 ], [ -41.27074, -3.837828699999932 ], [ -41.271992, -3.836478399999976 ], [ -41.271994, -3.836476299999958 ], [ -41.273692499999981, -3.835751899999934 ], [ -41.273733, -3.835734599999967 ], [ -41.27513579999993, -3.833941299999935 ], [ -41.275229699999954, -3.830208299999981 ], [ -41.276856299999963, -3.825621099999978 ], [ -41.278008199999931, -3.824553799999933 ], [ -41.278030499999943, -3.82453309999994 ], [ -41.278978499999937, -3.824602499999969 ], [ -41.281367, -3.826845499999934 ], [ -41.282659499999966, -3.826811899999939 ], [ -41.282673099999954, -3.826811499999963 ], [ -41.284728399999949, -3.82545209999995 ], [ -41.286683699999969, -3.822654199999931 ], [ -41.287424099999953, -3.822278 ], [ -41.287463899999977, -3.822257699999966 ], [ -41.287935899999979, -3.822487 ], [ -41.289351699999941, -3.825530699999945 ], [ -41.29253749999998, -3.825820499999963 ], [ -41.294245899999964, -3.829467799999975 ], [ -41.29516, -3.830178399999966 ], [ -41.296072099999947, -3.830039099999965 ], [ -41.296099499999968, -3.83003489999993 ], [ -41.296671899999978, -3.829449199999942 ], [ -41.298945, -3.826156799999978 ], [ -41.298959899999943, -3.826135199999953 ], [ -41.300756, -3.826293799999974 ], [ -41.300814099999968, -3.826298899999927 ], [ -41.298737099999983, -3.823155499999928 ], [ -41.294374, -3.818563299999937 ], [ -41.289849299999958, -3.814834699999949 ], [ -41.280464099999961, -3.805452399999979 ], [ -41.275612, -3.802302 ], [ -41.270753799999966, -3.79684629999997 ], [ -41.264828499999965, -3.791578299999969 ], [ -41.262604099999976, -3.78882 ], [ -41.25412289999997, -3.775041399999964 ], [ -41.253779499999951, -3.773419699999977 ], [ -41.254021799999975, -3.772019899999975 ], [ -41.254834699999947, -3.770263 ], [ -41.260483699999952, -3.76245119999993 ], [ -41.261182699999949, -3.757542699999931 ], [ -41.26151909999993, -3.751942299999939 ], [ -41.261262099999954, -3.746217899999976 ], [ -41.26001969999993, -3.739348899999925 ], [ -41.258518899999956, -3.732775499999946 ], [ -41.257362699999931, -3.729900499999928 ], [ -41.253080299999965, -3.724216299999966 ], [ -41.25188849999995, -3.723339799999962 ], [ -41.24722259999993, -3.722089399999959 ], [ -41.239429399999949, -3.720749699999942 ], [ -41.238540899999975, -3.719881099999952 ], [ -41.23806339999993, -3.717807599999958 ], [ -41.238280499999973, -3.715768599999933 ], [ -41.239294799999982, -3.712775399999941 ], [ -41.239213099999972, -3.71277269999996 ], [ -41.231046599999956, -3.712828399999978 ], [ -41.228665599999943, -3.712804499999947 ], [ -41.226077, -3.713050199999941 ], [ -41.224651599999959, -3.713431899999932 ], [ -41.22290959999998, -3.717179699999974 ], [ -41.221219699999949, -3.718909099999962 ], [ -41.220406399999945, -3.718802299999936 ], [ -41.216975099999956, -3.714284499999962 ], [ -41.216778899999952, -3.714162499999929 ], [ -41.213530599999956, -3.712134699999979 ], [ -41.212597799999969, -3.71016869999994 ], [ -41.210739399999966, -3.709627099999977 ], [ -41.208513299999936, -3.708971799999972 ], [ -41.207186799999931, -3.706930099999965 ], [ -41.205497399999956, -3.702557099999979 ], [ -41.204886599999952, -3.701087599999937 ], [ -41.203349799999955, -3.700625 ], [ -41.199927599999967, -3.699598699999967 ], [ -41.198199699999975, -3.697659899999962 ], [ -41.19632219999994, -3.696001599999931 ], [ -41.194875899999943, -3.696699499999966 ], [ -41.19418289999993, -3.698739299999943 ], [ -41.192390899999964, -3.702769099999955 ], [ -41.189207499999952, -3.703888799999959 ], [ -41.177702599999975, -3.700850299999956 ], [ -41.172057299999949, -3.697832199999937 ], [ -41.168968, -3.697351799999979 ], [ -41.164077, -3.699086 ], [ -41.160015099999953, -3.696746399999938 ], [ -41.156629699999939, -3.695324899999946 ], [ -41.152962299999956, -3.695046799999943 ], [ -41.150439499999948, -3.695483499999966 ], [ -41.14684619999997, -3.696231699999942 ], [ -41.140309399999978, -3.700914 ], [ -41.134964299999979, -3.701958899999966 ], [ -41.132414, -3.704903799999954 ], [ -41.130903299999943, -3.710409099999936 ], [ -41.129600699999969, -3.712341699999968 ], [ -41.12033409999998, -3.711582799999974 ], [ -41.113451899999973, -3.702761499999951 ], [ -41.11206569999996, -3.701791699999944 ], [ -41.109093399999949, -3.699712 ], [ -41.09899669999993, -3.697331599999927 ], [ -41.092142699999954, -3.693348299999968 ], [ -41.091051799999946, -3.692681599999958 ], [ -41.089508399999943, -3.691141 ], [ -41.088596199999984, -3.69009049999994 ], [ -41.087679699999967, -3.68957249999994 ], [ -41.086522299999956, -3.689462499999934 ], [ -41.085563, -3.68968609999996 ], [ -41.084789399999977, -3.690120599999943 ], [ -41.083959499999935, -3.69093909999998 ], [ -41.080368199999953, -3.690821299999925 ], [ -41.07439, -3.683269 ], [ -41.071233099999972, -3.681654299999934 ], [ -41.065905799999939, -3.678133399999979 ], [ -41.065899899999977, -3.678129499999955 ], [ -41.065399499999955, -3.677987099999939 ], [ -41.064448099999936, -3.677405599999929 ], [ -41.063036599999975, -3.674490499999933 ], [ -41.062630899999931, -3.674096799999973 ], [ -41.061725799999977, -3.673967299999958 ], [ -41.061512299999947, -3.674326599999972 ], [ -41.06039329999993, -3.674377 ], [ -41.05990369999995, -3.674139499999967 ], [ -41.059378699999968, -3.673219199999949 ], [ -41.058806299999958, -3.67279 ], [ -41.057924199999945, -3.672313599999939 ], [ -41.05708919999995, -3.671609799999942 ], [ -41.056147299999964, -3.671025899999961 ], [ -41.055706699999973, -3.670967099999928 ], [ -41.05520649999994, -3.670896499999969 ], [ -41.054192499999942, -3.670001799999966 ], [ -41.053346799999929, -3.669824399999925 ], [ -41.052547899999979, -3.669276 ], [ -41.051962899999978, -3.668559699999946 ], [ -41.051865299999974, -3.667531299999951 ], [ -41.051911599999983, -3.666945099999964 ], [ -41.051743699999975, -3.666407299999946 ], [ -41.051279199999954, -3.666324599999939 ], [ -41.051017, -3.666181699999925 ], [ -41.05076669999994, -3.666074599999945 ], [ -41.050326299999938, -3.666111499999943 ], [ -41.049612, -3.666113199999927 ], [ -41.048655199999985, -3.66524389999995 ], [ -41.04785789999994, -3.665102799999943 ], [ -41.046633099999951, -3.664971799999933 ], [ -41.046109, -3.664877299999944 ], [ -41.045835099999977, -3.664842 ], [ -41.045454399999983, -3.664974499999971 ], [ -41.045026399999983, -3.665226599999926 ], [ -41.044442799999956, -3.665108399999951 ], [ -41.043967499999951, -3.66552809999996 ], [ -41.043622899999946, -3.665815899999927 ], [ -41.042730699999936, -3.666140899999959 ], [ -41.042135, -3.665915 ], [ -41.041672699999936, -3.665531699999974 ], [ -41.041227899999967, -3.664912399999935 ], [ -41.040603199999964, -3.66530309999996 ], [ -41.03981239999996, -3.665477799999962 ], [ -41.039241, -3.665503 ], [ -41.039026699999965, -3.665503499999943 ], [ -41.038800399999957, -3.665444199999968 ], [ -41.038562099999979, -3.665361099999927 ], [ -41.038204399999984, -3.665122699999927 ], [ -41.035223599999938, -3.661955599999942 ], [ -41.029706099999942, -3.658688099999949 ], [ -41.02908, -3.657920899999965 ], [ -41.025563599999941, -3.65361489999998 ], [ -41.024001599999963, -3.649737799999969 ], [ -41.024169299999983, -3.647005799999931 ], [ -41.017814699999974, -3.646723 ], [ -41.015900899999963, -3.647133 ], [ -41.014528699999971, -3.646658599999967 ], [ -41.012387199999978, -3.647309299999961 ], [ -41.010031099999935, -3.647817 ], [ -41.008822799999962, -3.646945599999981 ], [ -41.007750399999964, -3.646541299999967 ], [ -41.006884299999967, -3.647305 ], [ -41.006191599999966, -3.647548499999971 ], [ -41.006224399999951, -3.64613449999996 ], [ -41.005699499999935, -3.644988799999965 ], [ -41.005409499999985, -3.644344499999931 ], [ -41.004577099999949, -3.643629899999951 ], [ -41.004457099999968, -3.643199599999946 ], [ -41.004826699999967, -3.643049899999937 ], [ -41.007378199999948, -3.643373399999973 ], [ -41.009946699999944, -3.642004099999951 ], [ -41.012085399999933, -3.640061699999933 ], [ -41.011720299999979, -3.636474199999952 ], [ -41.010141499999975, -3.633176499999934 ], [ -41.006850699999973, -3.630959 ], [ -41.004414899999972, -3.627735 ], [ -41.001553899999976, -3.626018899999963 ], [ -40.998692, -3.62387229999996 ], [ -40.993905299999938, -3.623524099999941 ], [ -40.990119, -3.623317099999952 ], [ -40.986473399999966, -3.622105099999942 ], [ -40.98369189999994, -3.621540899999957 ], [ -40.975597299999947, -3.61632179999998 ], [ -40.972083299999952, -3.614858199999958 ], [ -40.968651399999942, -3.61339449999997 ], [ -40.967577099999971, -3.612069099999928 ], [ -40.964930199999969, -3.610244699999953 ], [ -40.963211899999976, -3.608418399999948 ], [ -40.960203599999943, -3.60462119999994 ], [ -40.956388699999934, -3.603290199999947 ], [ -40.954135199999939, -3.601117599999952 ], [ -40.953264099999956, -3.599612299999933 ], [ -40.95173589999996, -3.59629949999993 ], [ -40.948212499999954, -3.592195099999969 ], [ -40.946099699999934, -3.589544199999978 ], [ -40.943596099999979, -3.587898799999948 ], [ -40.941627399999959, -3.586869099999944 ], [ -40.939423099999942, -3.58584849999994 ], [ -40.937172799999985, -3.586286399999949 ], [ -40.935200299999963, -3.586110899999937 ], [ -40.933514499999944, -3.584964299999967 ], [ -40.93228019999998, -3.583567599999981 ], [ -40.931658, -3.582376499999953 ], [ -40.931769899999949, -3.580189 ], [ -40.930362699999932, -3.577857699999925 ], [ -40.926857899999959, -3.57558279999995 ], [ -40.923054399999955, -3.573930599999926 ], [ -40.921208599999943, -3.572544499999935 ], [ -40.919869099999971, -3.571487699999977 ], [ -40.918627, -3.569997299999955 ], [ -40.916151399999933, -3.568149299999959 ], [ -40.91525269999994, -3.567095499999937 ], [ -40.914509199999941, -3.564489399999957 ], [ -40.913359599999978, -3.561632699999961 ], [ -40.912475599999937, -3.559732799999949 ], [ -40.91106579999996, -3.557295599999975 ], [ -40.910011899999972, -3.55470379999997 ], [ -40.907434, -3.551551199999949 ], [ -40.90543219999995, -3.55034569999998 ], [ -40.903217, -3.54984769999993 ], [ -40.900763299999937, -3.549182899999948 ], [ -40.899025599999959, -3.549377899999968 ], [ -40.897072799999933, -3.549214399999926 ], [ -40.895645199999933, -3.549695899999961 ], [ -40.894597, -3.549410899999941 ], [ -40.892235599999935, -3.547334399999954 ], [ -40.891018899999949, -3.546164699999963 ], [ -40.889826899999946, -3.545425499999965 ], [ -40.888801499999943, -3.544638099999929 ], [ -40.888011799999958, -3.543831099999977 ], [ -40.887419299999976, -3.542837099999929 ], [ -40.886438299999952, -3.541676399999972 ], [ -40.885529299999973, -3.53959679999997 ], [ -40.884476399999983, -3.538738399999943 ], [ -40.876874399999963, -3.532540899999958 ], [ -40.886723299999971, -3.520394199999942 ], [ -40.886225199999956, -3.51969239999994 ], [ -40.886210699999936, -3.518914299999949 ], [ -40.886226799999974, -3.518142299999965 ], [ -40.885823199999948, -3.517160799999942 ], [ -40.885374899999931, -3.51663659999997 ], [ -40.884897499999965, -3.516060099999947 ], [ -40.884455199999934, -3.515237599999978 ], [ -40.884134099999983, -3.514892399999951 ], [ -40.883442799999955, -3.514513199999953 ], [ -40.882606199999941, -3.514208899999971 ], [ -40.881852499999979, -3.51387079999995 ], [ -40.880796199999963, -3.513044199999968 ], [ -40.880175799999961, -3.512800499999969 ], [ -40.878360699999973, -3.512736 ], [ -40.877657199999931, -3.512813199999925 ], [ -40.876898, -3.512804199999948 ], [ -40.876373599999965, -3.512585399999978 ], [ -40.875259399999948, -3.511970399999939 ], [ -40.874605199999962, -3.511737399999959 ], [ -40.873281899999938, -3.511739899999952 ], [ -40.872296, -3.511395299999947 ], [ -40.871642299999962, -3.510838099999944 ], [ -40.870902799999953, -3.510329799999965 ], [ -40.870051699999976, -3.510125699999946 ], [ -40.869509199999982, -3.509938499999976 ], [ -40.869073399999934, -3.509571899999969 ], [ -40.868915499999957, -3.509035599999947 ], [ -40.869032799999957, -3.50842629999994 ], [ -40.869319799999971, -3.507885399999964 ], [ -40.869865299999958, -3.507516499999952 ], [ -40.870714499999963, -3.50697109999993 ], [ -40.872009699999978, -3.506155699999965 ], [ -40.872897099999932, -3.505009299999926 ], [ -40.873288499999944, -3.504426499999965 ], [ -40.873554, -3.503812099999948 ], [ -40.873987399999976, -3.503294199999971 ], [ -40.874645699999974, -3.502904799999953 ], [ -40.875193699999954, -3.502613799999949 ], [ -40.875710799999979, -3.502028899999971 ], [ -40.875825099999929, -3.501830499999926 ], [ -40.876245899999958, -3.501347499999952 ], [ -40.876904299999978, -3.501006899999936 ], [ -40.878337599999952, -3.500356 ], [ -40.87883949999997, -3.499917599999947 ], [ -40.87967759999998, -3.498644299999967 ], [ -40.880999499999973, -3.497682899999973 ], [ -40.88194139999996, -3.49697759999998 ], [ -40.882606499999952, -3.496446699999979 ], [ -40.883033399999931, -3.495894499999963 ], [ -40.883208899999943, -3.495220899999936 ], [ -40.883090899999956, -3.494567399999937 ], [ -40.882533299999977, -3.493494399999975 ], [ -40.882747299999949, -3.491657199999963 ], [ -40.883033099999977, -3.490393 ], [ -40.88440879999996, -3.488530299999979 ], [ -40.88432819999997, -3.488016099999925 ], [ -40.883884599999931, -3.487651299999925 ], [ -40.883194299999957, -3.487686399999973 ], [ -40.882424, -3.487688399999968 ], [ -40.88157769999998, -3.487383799999975 ], [ -40.880181499999935, -3.486709799999971 ], [ -40.878615299999979, -3.485815899999977 ], [ -40.877889299999936, -3.48516589999997 ], [ -40.876727, -3.483212399999957 ], [ -40.876055299999962, -3.482277899999929 ], [ -40.875241699999947, -3.481620899999939 ], [ -40.874611899999934, -3.481332699999939 ], [ -40.873026399999958, -3.481146099999933 ], [ -40.871524199999953, -3.480897 ], [ -40.870000599999969, -3.480633599999976 ], [ -40.868884, -3.480140199999937 ], [ -40.868101699999954, -3.479640099999926 ], [ -40.866995, -3.478666199999964 ], [ -40.866688599999975, -3.477786399999957 ], [ -40.86691559999997, -3.477020399999958 ], [ -40.867371399999968, -3.476349599999935 ], [ -40.868418099999985, -3.47590729999996 ], [ -40.869293899999946, -3.47571419999997 ], [ -40.870302599999945, -3.475348499999939 ], [ -40.871234799999968, -3.474791599999946 ], [ -40.872090499999956, -3.474062599999968 ], [ -40.872870199999966, -3.473448599999927 ], [ -40.87309769999996, -3.472931399999936 ], [ -40.873210599999936, -3.472223 ], [ -40.87315179999996, -3.471361899999977 ], [ -40.873264399999982, -3.470538699999963 ], [ -40.873072299999933, -3.469677799999943 ], [ -40.872880399999985, -3.468950899999925 ], [ -40.872612299999957, -3.468243299999926 ], [ -40.87219239999996, -3.467784699999925 ], [ -40.871352799999954, -3.466982599999938 ], [ -40.870379699999944, -3.46612319999997 ], [ -40.86927309999993, -3.465168499999947 ], [ -40.868853299999955, -3.464748199999974 ], [ -40.868599699999947, -3.464266299999963 ], [ -40.869016099999953, -3.463377699999967 ], [ -40.869723099999931, -3.46180529999998 ], [ -40.869731899999977, -3.460927 ], [ -40.869280299999957, -3.459986 ], [ -40.866861099999937, -3.457329299999969 ], [ -40.866513899999973, -3.456873099999939 ], [ -40.865696199999945, -3.454985199999953 ], [ -40.86535669999995, -3.451992699999948 ], [ -40.865024799999958, -3.45004849999998 ], [ -40.86455559999996, -3.448968199999968 ], [ -40.864131799999939, -3.448255399999937 ], [ -40.86312769999995, -3.44721409999994 ], [ -40.86268339999998, -3.446602499999926 ], [ -40.862554299999942, -3.445779899999934 ], [ -40.862706499999945, -3.444994799999961 ], [ -40.862701799999968, -3.444475099999977 ], [ -40.862497699999949, -3.44389259999997 ], [ -40.862099099999966, -3.443224399999963 ], [ -40.861672599999963, -3.442405899999926 ], [ -40.861344799999983, -3.440683799999931 ], [ -40.861131299999954, -3.439835799999969 ], [ -40.860621599999945, -3.439197499999977 ], [ -40.858270499999946, -3.438749399999949 ], [ -40.855081699999971, -3.437492 ], [ -40.854216199999939, -3.437066399999935 ], [ -40.853676699999937, -3.436319099999935 ], [ -40.853570099999956, -3.435895599999981 ], [ -40.853407599999969, -3.435249799999951 ], [ -40.852792, -3.434352599999954 ], [ -40.852211299999965, -3.43385619999998 ], [ -40.850830799999983, -3.432831699999952 ], [ -40.848718199999951, -3.431932699999948 ], [ -40.848430199999939, -3.431248799999935 ], [ -40.847715099999959, -3.430805199999952 ], [ -40.846807699999943, -3.430634699999928 ], [ -40.846121099999948, -3.430155199999945 ], [ -40.845970199999954, -3.429660199999944 ], [ -40.846190299999932, -3.428992299999948 ], [ -40.846539099999973, -3.428381599999966 ], [ -40.846608899999978, -3.427520199999947 ], [ -40.846653899999978, -3.427215599999954 ], [ -40.846749899999963, -3.426565299999936 ], [ -40.847319699999957, -3.425753199999974 ], [ -40.847675699999968, -3.42517829999997 ], [ -40.847953599999983, -3.424826099999962 ], [ -40.848474199999941, -3.424430299999926 ], [ -40.84900179999994, -3.423955599999942 ], [ -40.849193199999945, -3.423194399999943 ], [ -40.849356, -3.422390199999938 ], [ -40.849933, -3.42160679999995 ], [ -40.850660699999935, -3.421196299999963 ], [ -40.851417, -3.420828799999981 ], [ -40.851995899999963, -3.420189299999947 ], [ -40.852030899999932, -3.419448699999975 ], [ -40.851145699999961, -3.418740799999966 ], [ -40.85077119999994, -3.418169499999976 ], [ -40.850584899999944, -3.417508399999974 ], [ -40.849065899999971, -3.417169199999933 ], [ -40.835532799999953, -3.441305 ], [ -40.826549499999942, -3.453363899999943 ], [ -40.821677499999964, -3.470818899999927 ], [ -40.838526, -3.511701899999935 ], [ -40.840665399999978, -3.514528199999972 ], [ -40.840667199999984, -3.514530599999944 ], [ -40.856843899999944, -3.535901199999955 ], [ -40.857188599999972, -3.536126 ], [ -40.857491799999934, -3.536323699999969 ], [ -40.859963499999935, -3.537935299999958 ], [ -40.892467199999942, -3.559128399999963 ], [ -40.904036799999972, -3.575332199999934 ], [ -40.899122699999964, -3.595593399999927 ], [ -40.897913299999971, -3.606281 ], [ -40.896223199999952, -3.62121529999996 ], [ -40.896144599999957, -3.621909599999981 ], [ -40.89504119999998, -3.631662 ], [ -40.89484669999996, -3.633380299999942 ], [ -40.890935099999979, -3.667947199999958 ], [ -40.878450199999975, -3.708670799999936 ], [ -40.87421889999996, -3.722472599999946 ], [ -40.880044299999952, -3.738635899999963 ], [ -40.880237499999964, -3.739172 ], [ -40.886078399999974, -3.755378299999961 ], [ -40.892889899999943, -3.773976399999981 ], [ -40.893771099999981, -3.776531099999943 ], [ -40.895302799999968, -3.780978799999957 ], [ -40.895729899999935, -3.780515499999979 ], [ -40.896362299999964, -3.780085099999951 ], [ -40.897335799999951, -3.779680699999972 ], [ -40.897775399999944, -3.779277499999978 ], [ -40.89812139999998, -3.778794 ], [ -40.898547699999938, -3.778417599999955 ], [ -40.899120899999957, -3.778041 ], [ -40.899707899999953, -3.777919 ], [ -40.900401599999952, -3.777983199999937 ], [ -40.900415499999951, -3.777984499999945 ], [ -40.901483799999937, -3.778210099999967 ], [ -40.901592599999958, -3.778304499999933 ], [ -40.902393199999949, -3.77899919999993 ], [ -40.903444099999945, -3.780411 ], [ -40.903683899999976, -3.781467799999973 ], [ -40.904069899999968, -3.782763199999977 ], [ -40.904503699999964, -3.784005 ], [ -40.90459629999998, -3.784160099999951 ], [ -40.904817899999955, -3.784531399999935 ], [ -40.905508699999984, -3.785361599999931 ], [ -40.906391499999984, -3.78608939999998 ], [ -40.90782269999994, -3.787126899999976 ], [ -40.907983399999978, -3.787219599999958 ], [ -40.909289199999932, -3.787972899999943 ], [ -40.91061209999998, -3.788448399999936 ], [ -40.911125199999958, -3.788390199999981 ], [ -40.912184099999934, -3.787947599999939 ], [ -40.913370799999939, -3.788034499999981 ], [ -40.913838599999963, -3.788202099999978 ], [ -40.914183699999967, -3.788117599999964 ], [ -40.914599399999929, -3.787888299999963 ], [ -40.914756899999929, -3.788031499999931 ], [ -40.915128299999935, -3.787958899999978 ], [ -40.915485699999977, -3.788029799999947 ], [ -40.915828199999964, -3.787828099999956 ], [ -40.916186099999948, -3.787842 ], [ -40.91655929999996, -3.788107799999977 ], [ -40.917157399999951, -3.787968699999965 ], [ -40.917662199999938, -3.787623399999973 ], [ -40.918072299999949, -3.787581799999941 ], [ -40.91851319999995, -3.787188199999946 ], [ -40.919141499999967, -3.787002599999937 ], [ -40.919998799999973, -3.786943299999962 ], [ -40.920626899999945, -3.786654799999951 ], [ -40.921513499999946, -3.786954199999968 ], [ -40.922443499999929, -3.787512 ], [ -40.923301799999933, -3.787940699999979 ], [ -40.923888899999952, -3.788456099999962 ], [ -40.924703199999954, -3.789186699999959 ], [ -40.92553769999995, -3.789603499999942 ], [ -40.92620549999998, -3.790032599999961 ], [ -40.92681349999998, -3.790366099999972 ], [ -40.927397499999984, -3.790580199999965 ], [ -40.927731199999982, -3.790746899999931 ], [ -40.928042199999936, -3.791344299999935 ], [ -40.928390599999943, -3.791600099999926 ], [ -40.928454299999942, -3.791646799999967 ], [ -40.929545899999937, -3.792384 ], [ -40.930167599999947, -3.793530899999951 ], [ -40.930480899999964, -3.793844099999944 ], [ -40.930549499999984, -3.79391279999993 ], [ -40.930635699999982, -3.793971499999941 ], [ -40.93122829999993, -3.794375399999979 ], [ -40.931705699999952, -3.794864699999948 ], [ -40.931881399999952, -3.795253199999934 ], [ -40.932040799999982, -3.795605599999931 ], [ -40.932625599999938, -3.796202299999948 ], [ -40.93307939999994, -3.796799399999941 ], [ -40.933546099999944, -3.797791199999949 ], [ -40.93376, -3.797970299999974 ], [ -40.934153099999946, -3.798299399999962 ], [ -40.935475899999972, -3.798121699999967 ], [ -40.936235899999986, -3.798374099999933 ], [ -40.936846699999933, -3.798752599999943 ], [ -40.937499299999956, -3.799331399999971 ], [ -40.938418799999965, -3.799808499999926 ], [ -40.938812399999961, -3.800058799999931 ], [ -40.940134899999975, -3.800414699999976 ], [ -40.94094, -3.800506199999973 ], [ -40.940959499999963, -3.800508399999956 ], [ -40.941470699999968, -3.800404799999967 ], [ -40.941900499999974, -3.800894299999925 ], [ -40.942556399999944, -3.801347399999941 ], [ -40.943222799999944, -3.801154499999939 ], [ -40.943959399999983, -3.800994899999978 ], [ -40.944079099999954, -3.80107849999996 ], [ -40.944779899999958, -3.801567199999965 ], [ -40.945060399999932, -3.801965 ], [ -40.945665299999973, -3.801770899999951 ], [ -40.946095399999933, -3.801947 ], [ -40.946416499999941, -3.802187899999979 ], [ -40.947018399999934, -3.803233599999942 ], [ -40.947647399999937, -3.803356599999972 ], [ -40.948145499999953, -3.803260499999965 ], [ -40.948688899999979, -3.803271099999961 ], [ -40.948693299999945, -3.803271199999926 ], [ -40.948841199999947, -3.803385799999944 ], [ -40.94917049999998, -3.803640899999948 ], [ -40.949417599999947, -3.80398 ], [ -40.949612, -3.804186199999947 ], [ -40.949672, -3.80424979999998 ], [ -40.949901599999976, -3.804223899999954 ], [ -40.950109599999962, -3.80410089999998 ], [ -40.950294099999951, -3.804001699999958 ], [ -40.950335799999948, -3.804013599999962 ], [ -40.950675899999965, -3.80411 ], [ -40.950997899999948, -3.804037599999958 ], [ -40.951099, -3.804100299999959 ], [ -40.95137509999995, -3.804271399999948 ], [ -40.95161289999993, -3.804355799999939 ], [ -40.951656, -3.804371 ], [ -40.95196059999995, -3.80427009999994 ], [ -40.952229899999963, -3.804269499999975 ], [ -40.952248499999939, -3.804397799999947 ], [ -40.952302499999973, -3.804771699999947 ], [ -40.952581199999941, -3.804895199999976 ], [ -40.952971099999957, -3.804836399999942 ], [ -40.953001099999938, -3.805210099999954 ], [ -40.953075699999943, -3.805323399999963 ], [ -40.953192199999933, -3.805500499999937 ], [ -40.953425599999946, -3.805717299999969 ], [ -40.953516899999954, -3.80580219999996 ], [ -40.953981299999953, -3.805916399999944 ], [ -40.954265299999975, -3.806525499999964 ], [ -40.954807899999935, -3.806261799999959 ], [ -40.955086499999936, -3.806326299999967 ], [ -40.955180199999973, -3.806672099999957 ], [ -40.955230599999936, -3.806858299999931 ], [ -40.955903199999966, -3.806743099999949 ], [ -40.95617969999995, -3.807932599999958 ], [ -40.955706499999962, -3.808352099999979 ], [ -40.955514199999982, -3.808603799999958 ], [ -40.955642, -3.808811399999968 ], [ -40.955686299999968, -3.808883299999934 ], [ -40.955991899999958, -3.809141099999977 ], [ -40.95617249999998, -3.80902569999995 ], [ -40.956372, -3.808802799999967 ], [ -40.956693599999937, -3.809126599999956 ], [ -40.957069, -3.809371699999929 ], [ -40.957231699999966, -3.809754299999952 ], [ -40.957717, -3.80957959999995 ], [ -40.957921399999975, -3.80967069999997 ], [ -40.958042399999954, -3.809895499999925 ], [ -40.958118499999955, -3.810036899999943 ], [ -40.958076299999959, -3.81051169999995 ], [ -40.958198799999934, -3.810867499999972 ], [ -40.958239499999934, -3.81088879999993 ], [ -40.958675599999935, -3.811084699999981 ], [ -40.959069299999953, -3.811172799999952 ], [ -40.959087599999975, -3.811176899999964 ], [ -40.959223899999984, -3.811422099999959 ], [ -40.959477799999945, -3.811421199999927 ], [ -40.959803, -3.811555599999963 ], [ -40.95995, -3.811889299999962 ], [ -40.959940399999937, -3.81229449999995 ], [ -40.960233199999948, -3.812672 ], [ -40.959877799999958, -3.813057799999967 ], [ -40.959862199999975, -3.813454799999931 ], [ -40.959908399999961, -3.813928499999975 ], [ -40.960357399999964, -3.814501599999971 ], [ -40.960840299999973, -3.814742799999976 ], [ -40.961644399999955, -3.814910099999963 ], [ -40.961988199999951, -3.815226199999927 ], [ -40.962055299999975, -3.815483399999948 ], [ -40.961602499999969, -3.815875 ], [ -40.961705, -3.816431499999965 ], [ -40.961707299999944, -3.817426699999942 ], [ -40.961852599999929, -3.818478899999945 ], [ -40.961765799999966, -3.818974199999957 ], [ -40.962007599999936, -3.819655599999976 ], [ -40.962062399999979, -3.820935599999927 ], [ -40.961698599999977, -3.822010299999931 ], [ -40.961436699999979, -3.82359329999997 ], [ -40.961846299999934, -3.824096 ], [ -40.962294399999962, -3.824257599999953 ], [ -40.962514099999964, -3.824534599999936 ], [ -40.962695899999972, -3.824859599999968 ], [ -40.962819899999943, -3.825528899999938 ], [ -40.962856899999963, -3.826629899999944 ], [ -40.963148799999942, -3.827126399999941 ], [ -40.964016499999957, -3.827507199999957 ], [ -40.965742599999942, -3.82886179999997 ], [ -40.966847899999948, -3.830436799999973 ], [ -40.966676399999983, -3.830966199999978 ], [ -40.966855499999951, -3.831173899999953 ], [ -40.966827799999976, -3.831568699999934 ], [ -40.967093699999964, -3.832242699999938 ], [ -40.967251699999963, -3.832586899999967 ], [ -40.967838699999959, -3.833066299999928 ], [ -40.967836599999941, -3.833333299999936 ], [ -40.96783309999995, -3.833776899999975 ], [ -40.967820699999947, -3.834573499999976 ], [ -40.967485599999975, -3.835326 ], [ -40.967401199999983, -3.83570229999998 ], [ -40.967196099999967, -3.836419399999954 ], [ -40.967015599999968, -3.83748079999998 ], [ -40.96715759999995, -3.838292599999932 ], [ -40.967376499999943, -3.839110799999958 ], [ -40.967960399999981, -3.838873 ], [ -40.969709499999965, -3.839849899999933 ], [ -40.971055699999965, -3.840092099999936 ], [ -40.971993299999951, -3.840369899999928 ], [ -40.972110199999975, -3.840404499999977 ], [ -40.972360699999967, -3.841048399999977 ], [ -40.972470499999929, -3.841162299999951 ], [ -40.972605499999929, -3.841302299999938 ], [ -40.973136599999975, -3.841934099999946 ], [ -40.973553699999968, -3.842026499999974 ], [ -40.974042, -3.842049299999928 ], [ -40.974172199999941, -3.841862499999934 ], [ -40.973803099999941, -3.841738799999973 ], [ -40.973719899999935, -3.841400699999951 ], [ -40.974158399999965, -3.841473 ], [ -40.974148299999968, -3.841014399999949 ], [ -40.974870299999964, -3.841232899999966 ], [ -40.975527599999964, -3.840869099999964 ], [ -40.975536099999943, -3.84086439999993 ], [ -40.975548699999933, -3.840862499999957 ], [ -40.976547499999981, -3.840714199999979 ], [ -40.976622, -3.840458199999944 ], [ -40.978201099999978, -3.840106 ], [ -40.980199599999935, -3.839413299999933 ], [ -40.981102, -3.838649799999928 ], [ -40.98254559999998, -3.83893089999998 ], [ -40.982536799999934, -3.839096 ], [ -40.983441299999981, -3.839249799999948 ], [ -40.984262599999965, -3.838972699999943 ], [ -40.985885099999962, -3.839512199999945 ], [ -40.986112299999945, -3.839587699999925 ], [ -40.988874399999929, -3.840920299999937 ], [ -40.990497199999936, -3.840929099999926 ], [ -40.992503399999975, -3.841034099999945 ], [ -40.993374899999935, -3.840905899999939 ], [ -40.993513099999973, -3.840951 ], [ -40.99435479999994, -3.84122549999995 ], [ -40.997495, -3.840631 ], [ -40.999978499999941, -3.840380599999946 ], [ -41.002014899999949, -3.840690199999926 ], [ -41.00215419999995, -3.840711399999975 ], [ -41.003790699999968, -3.840738499999929 ], [ -41.005590299999938, -3.84017149999994 ], [ -41.006589599999984, -3.839973599999951 ], [ -41.008719599999949, -3.840836599999932 ], [ -41.008896, -3.841549 ], [ -41.009406699999943, -3.84180159999994 ], [ -41.00995759999995, -3.842300099999932 ], [ -41.010662499999967, -3.842459099999928 ], [ -41.011102599999958, -3.84306289999995 ], [ -41.011577599999953, -3.843252 ], [ -41.01221019999997, -3.843156 ], [ -41.012873899999931, -3.84327049999996 ], [ -41.013489799999945, -3.843913099999952 ], [ -41.01404679999996, -3.844067299999949 ], [ -41.014634899999976, -3.84364839999995 ], [ -41.014740699999948, -3.84204589999996 ], [ -41.015053199999954, -3.84186939999995 ], [ -41.015616799999975, -3.841786899999931 ], [ -41.015777699999944, -3.842887299999973 ], [ -41.016473599999983, -3.843656199999941 ], [ -41.017216799999971, -3.843837899999926 ], [ -41.018044299999985, -3.843628099999933 ], [ -41.018369299999961, -3.844253699999967 ], [ -41.018835099999933, -3.84459419999996 ], [ -41.019811599999969, -3.84433329999996 ], [ -41.020424399999968, -3.844242399999928 ], [ -41.021734799999933, -3.844047899999964 ], [ -41.022960099999978, -3.844698899999969 ], [ -41.02484359999994, -3.845605499999976 ], [ -41.025386499999968, -3.845708199999933 ], [ -41.026005, -3.845419699999979 ], [ -41.026625499999966, -3.845968399999947 ], [ -41.02715029999996, -3.846302099999946 ], [ -41.027984199999935, -3.84646749999996 ], [ -41.029721799999948, -3.846068699999933 ], [ -41.030587, -3.846257099999946 ], [ -41.031174699999951, -3.846489599999927 ], [ -41.031786099999977, -3.847845899999925 ], [ -41.032214299999964, -3.848284599999943 ], [ -41.033002299999964, -3.84852479999995 ], [ -41.033526, -3.848391899999967 ], [ -41.034467, -3.848509299999932 ], [ -41.034766899999966, -3.849453499999925 ], [ -41.035328099999958, -3.849605099999962 ], [ -41.035838699999942, -3.849486799999966 ], [ -41.036361599999964, -3.849055 ], [ -41.037648499999932, -3.848608199999944 ], [ -41.039145899999937, -3.84737709999996 ], [ -41.039519199999972, -3.84672009999997 ], [ -41.040115, -3.846376199999952 ], [ -41.040933199999984, -3.847352699999931 ], [ -41.041501499999981, -3.847236499999951 ], [ -41.042922799999985, -3.845949599999926 ], [ -41.044538399999965, -3.845151 ], [ -41.04490119999997, -3.844982699999946 ], [ -41.046360499999935, -3.84418009999996 ], [ -41.046815799999933, -3.843647499999975 ], [ -41.048006699999974, -3.843716399999948 ], [ -41.048797099999945, -3.843068599999981 ], [ -41.049575199999936, -3.842325199999948 ] ] ] ] } }
]
}
